{
"type": "FeatureCollection",
"name": "shop_polygon",
"crs": { "type": "name", "properties": { "name": "urn:ogc:def:crs:OGC:1.3:CRS84" } },
"features": [
{ "type": "Feature", "properties": { "full_id": "w94907568", "osm_id": "94907568", "osm_type": "way", "building": "yes", "name": "Fresh Market", "shop": "supermarket", "brand": "", "brand:wikidata": "", "brand:wikipedia": "", "addr:city": "", "addr:housenumber": "", "addr:postcode": "", "addr:street": "", "addr:state": "", "addr:unit": "", "operator": "", "website": "", "opening_hours": "", "building:levels": "", "fax": "", "phone": "", "addr:country": "", "alt_name": "", "level": "", "short_name": "", "internet_access": "", "internet_access:fee": "", "roof:shape": "", "height": "", "ref:miabldg": "", "payment:coins": "", "landuse": "", "wikidata": "", "wikipedia": "", "ref:miaaddr": "", "parking": "", "ref:walmart": "" }, "geometry": { "type": "MultiPolygon", "coordinates": [ [ [ [ -80.2339341, 25.7305116 ], [ -80.2344704, 25.7306259 ], [ -80.2343981, 25.7309013 ], [ -80.2338618, 25.730787 ], [ -80.2339341, 25.7305116 ] ] ] ] } },
{ "type": "Feature", "properties": { "full_id": "w255188171", "osm_id": "255188171", "osm_type": "way", "building": "yes", "name": "Publix", "shop": "supermarket", "brand": "Publix", "brand:wikidata": "Q672170", "brand:wikipedia": "en:Publix", "addr:city": "", "addr:housenumber": "", "addr:postcode": "", "addr:street": "", "addr:state": "", "addr:unit": "", "operator": "", "website": "", "opening_hours": "", "building:levels": "", "fax": "", "phone": "", "addr:country": "", "alt_name": "", "level": "", "short_name": "", "internet_access": "", "internet_access:fee": "", "roof:shape": "", "height": "", "ref:miabldg": "", "payment:coins": "", "landuse": "", "wikidata": "", "wikipedia": "", "ref:miaaddr": "", "parking": "", "ref:walmart": "" }, "geometry": { "type": "MultiPolygon", "coordinates": [ [ [ [ -80.1970108, 25.7613711 ], [ -80.1969999, 25.761021 ], [ -80.1962776, 25.7610395 ], [ -80.1962491, 25.7610417 ], [ -80.1962511, 25.761117 ], [ -80.1962531, 25.7611927 ], [ -80.1962853, 25.7611915 ], [ -80.1962839, 25.7613642 ], [ -80.1963228, 25.761363 ], [ -80.1963235, 25.7613884 ], [ -80.1970108, 25.7613711 ] ] ] ] } },
{ "type": "Feature", "properties": { "full_id": "w255191911", "osm_id": "255191911", "osm_type": "way", "building": "yes", "name": "Publix Super Market at Baypoint", "shop": "supermarket", "brand": "", "brand:wikidata": "", "brand:wikipedia": "", "addr:city": "Miami", "addr:housenumber": "4870", "addr:postcode": "33137", "addr:street": "Biscayne Boulevard", "addr:state": "", "addr:unit": "", "operator": "", "website": "", "opening_hours": "", "building:levels": "", "fax": "", "phone": "", "addr:country": "", "alt_name": "", "level": "", "short_name": "", "internet_access": "", "internet_access:fee": "", "roof:shape": "", "height": "", "ref:miabldg": "", "payment:coins": "", "landuse": "", "wikidata": "", "wikipedia": "", "ref:miaaddr": "", "parking": "", "ref:walmart": "" }, "geometry": { "type": "MultiPolygon", "coordinates": [ [ [ [ -80.1879223, 25.8205639 ], [ -80.1880602, 25.8199614 ], [ -80.1884406, 25.8200353 ], [ -80.1883069, 25.8206342 ], [ -80.1879223, 25.8205639 ] ] ] ] } },
{ "type": "Feature", "properties": { "full_id": "w278725021", "osm_id": "278725021", "osm_type": "way", "building": "yes", "name": "AutoZone", "shop": "car_parts", "brand": "AutoZone", "brand:wikidata": "Q4826087", "brand:wikipedia": "en:AutoZone", "addr:city": "Miami", "addr:housenumber": "730", "addr:postcode": "33127", "addr:street": "Northwest 54th Street", "addr:state": "FL", "addr:unit": "", "operator": "", "website": "", "opening_hours": "", "building:levels": "", "fax": "", "phone": "", "addr:country": "", "alt_name": "", "level": "", "short_name": "", "internet_access": "", "internet_access:fee": "", "roof:shape": "", "height": "", "ref:miabldg": "", "payment:coins": "", "landuse": "", "wikidata": "", "wikipedia": "", "ref:miaaddr": "", "parking": "", "ref:walmart": "" }, "geometry": { "type": "MultiPolygon", "coordinates": [ [ [ [ -80.2086206, 25.8245033 ], [ -80.2086284, 25.8247422 ], [ -80.2089099, 25.8247347 ], [ -80.2089021, 25.8244958 ], [ -80.2086206, 25.8245033 ] ] ] ] } },
{ "type": "Feature", "properties": { "full_id": "w278823410", "osm_id": "278823410", "osm_type": "way", "building": "yes", "name": "Advance Auto Parts", "shop": "car_parts", "brand": "Advance Auto Parts", "brand:wikidata": "Q4686051", "brand:wikipedia": "en:Advance Auto Parts", "addr:city": "", "addr:housenumber": "", "addr:postcode": "", "addr:street": "", "addr:state": "", "addr:unit": "", "operator": "", "website": "", "opening_hours": "", "building:levels": "", "fax": "", "phone": "", "addr:country": "", "alt_name": "", "level": "", "short_name": "", "internet_access": "", "internet_access:fee": "", "roof:shape": "", "height": "", "ref:miabldg": "", "payment:coins": "", "landuse": "", "wikidata": "", "wikipedia": "", "ref:miaaddr": "", "parking": "", "ref:walmart": "" }, "geometry": { "type": "MultiPolygon", "coordinates": [ [ [ [ -80.2523398, 25.7331935 ], [ -80.2525329, 25.7331842 ], [ -80.2525494, 25.7334621 ], [ -80.2523563, 25.7334714 ], [ -80.2523398, 25.7331935 ] ] ] ] } },
{ "type": "Feature", "properties": { "full_id": "w294617016", "osm_id": "294617016", "osm_type": "way", "building": "yes", "name": "MMJ DOCTORS", "shop": "cannabis", "brand": "", "brand:wikidata": "", "brand:wikipedia": "", "addr:city": "Miami", "addr:housenumber": "434 SW", "addr:postcode": "33130", "addr:street": "Southwest 12th Avenue", "addr:state": "FL", "addr:unit": "206", "operator": "MMJ DOCTORS", "website": "https:\/\/mmjdoctors.com\/", "opening_hours": "", "building:levels": "", "fax": "", "phone": "", "addr:country": "", "alt_name": "", "level": "", "short_name": "", "internet_access": "", "internet_access:fee": "", "roof:shape": "", "height": "", "ref:miabldg": "", "payment:coins": "", "landuse": "", "wikidata": "", "wikipedia": "", "ref:miaaddr": "", "parking": "", "ref:walmart": "" }, "geometry": { "type": "MultiPolygon", "coordinates": [ [ [ [ -80.2146586, 25.7690054 ], [ -80.2146522, 25.7687496 ], [ -80.2148395, 25.7687458 ], [ -80.2148459, 25.7690016 ], [ -80.2146586, 25.7690054 ] ] ] ] } },
{ "type": "Feature", "properties": { "full_id": "w301301319", "osm_id": "301301319", "osm_type": "way", "building": "yes", "name": "Walgreens", "shop": "chemist", "brand": "Walgreens", "brand:wikidata": "Q1591889", "brand:wikipedia": "en:Walgreens", "addr:city": "", "addr:housenumber": "", "addr:postcode": "", "addr:street": "", "addr:state": "", "addr:unit": "", "operator": "", "website": "", "opening_hours": "", "building:levels": "", "fax": "", "phone": "", "addr:country": "", "alt_name": "", "level": "", "short_name": "", "internet_access": "", "internet_access:fee": "", "roof:shape": "", "height": "", "ref:miabldg": "", "payment:coins": "", "landuse": "", "wikidata": "", "wikipedia": "", "ref:miaaddr": "", "parking": "", "ref:walmart": "" }, "geometry": { "type": "MultiPolygon", "coordinates": [ [ [ [ -80.2532275, 25.7339233 ], [ -80.2530044, 25.7337224 ], [ -80.2532097, 25.7335374 ], [ -80.2531874, 25.7335173 ], [ -80.2532844, 25.7334299 ], [ -80.2533814, 25.7335173 ], [ -80.253355, 25.7335411 ], [ -80.2535034, 25.7336747 ], [ -80.2532275, 25.7339233 ] ] ] ] } },
{ "type": "Feature", "properties": { "full_id": "w301827431", "osm_id": "301827431", "osm_type": "way", "building": "retail", "name": "Winn Dixie", "shop": "supermarket", "brand": "", "brand:wikidata": "", "brand:wikipedia": "", "addr:city": "", "addr:housenumber": "", "addr:postcode": "", "addr:street": "", "addr:state": "", "addr:unit": "", "operator": "", "website": "", "opening_hours": "", "building:levels": "", "fax": "", "phone": "", "addr:country": "", "alt_name": "", "level": "", "short_name": "", "internet_access": "", "internet_access:fee": "", "roof:shape": "", "height": "", "ref:miabldg": "", "payment:coins": "", "landuse": "", "wikidata": "", "wikipedia": "", "ref:miaaddr": "", "parking": "", "ref:walmart": "" }, "geometry": { "type": "MultiPolygon", "coordinates": [ [ [ [ -80.2481954, 25.7506711 ], [ -80.247346, 25.7506956 ], [ -80.2473528, 25.7509523 ], [ -80.2473601, 25.7512388 ], [ -80.2473686, 25.7513314 ], [ -80.2481228, 25.751119 ], [ -80.2481167, 25.7509472 ], [ -80.2482051, 25.7509446 ], [ -80.2481954, 25.7506711 ] ] ] ] } },
{ "type": "Feature", "properties": { "full_id": "w301827434", "osm_id": "301827434", "osm_type": "way", "building": "retail", "name": "", "shop": "mall", "brand": "", "brand:wikidata": "", "brand:wikipedia": "", "addr:city": "Miami", "addr:housenumber": "3301", "addr:postcode": "33145", "addr:street": "Southwest 22nd Street", "addr:state": "FL", "addr:unit": "", "operator": "", "website": "", "opening_hours": "Mo-Su 10:00-21:00", "building:levels": "", "fax": "", "phone": "", "addr:country": "", "alt_name": "", "level": "", "short_name": "", "internet_access": "", "internet_access:fee": "", "roof:shape": "", "height": "", "ref:miabldg": "", "payment:coins": "", "landuse": "", "wikidata": "", "wikipedia": "", "ref:miaaddr": "", "parking": "", "ref:walmart": "" }, "geometry": { "type": "MultiPolygon", "coordinates": [ [ [ [ -80.2505366, 25.7501511 ], [ -80.2488229, 25.7501971 ], [ -80.2488393, 25.7506911 ], [ -80.2495992, 25.7506707 ], [ -80.2495985, 25.750649 ], [ -80.250459, 25.7506259 ], [ -80.2504608, 25.7506792 ], [ -80.2505231, 25.7506776 ], [ -80.2505221, 25.7506474 ], [ -80.250553, 25.7506466 ], [ -80.2505366, 25.7501511 ] ] ] ] } },
{ "type": "Feature", "properties": { "full_id": "w301827437", "osm_id": "301827437", "osm_type": "way", "building": "retail", "name": "Sears", "shop": "department_store", "brand": "Sears", "brand:wikidata": "Q6499202", "brand:wikipedia": "en:Sears", "addr:city": "", "addr:housenumber": "", "addr:postcode": "", "addr:street": "", "addr:state": "", "addr:unit": "", "operator": "", "website": "", "opening_hours": "", "building:levels": "", "fax": "", "phone": "", "addr:country": "", "alt_name": "", "level": "", "short_name": "", "internet_access": "", "internet_access:fee": "", "roof:shape": "", "height": "", "ref:miabldg": "", "payment:coins": "", "landuse": "", "wikidata": "", "wikipedia": "", "ref:miaaddr": "", "parking": "", "ref:walmart": "" }, "geometry": { "type": "MultiPolygon", "coordinates": [ [ [ [ -80.253807, 25.7503169 ], [ -80.2526593, 25.7503509 ], [ -80.2526824, 25.7509828 ], [ -80.2528728, 25.7509771 ], [ -80.2528761, 25.7510685 ], [ -80.2538813, 25.7510388 ], [ -80.2538729, 25.7508085 ], [ -80.2538239, 25.7507811 ], [ -80.253807, 25.7503169 ] ] ] ] } },
{ "type": "Feature", "properties": { "full_id": "w301828284", "osm_id": "301828284", "osm_type": "way", "building": "yes", "name": "Office Depot", "shop": "stationery", "brand": "", "brand:wikidata": "", "brand:wikipedia": "", "addr:city": "", "addr:housenumber": "", "addr:postcode": "", "addr:street": "", "addr:state": "", "addr:unit": "", "operator": "", "website": "", "opening_hours": "", "building:levels": "", "fax": "", "phone": "", "addr:country": "", "alt_name": "", "level": "", "short_name": "", "internet_access": "", "internet_access:fee": "", "roof:shape": "", "height": "", "ref:miabldg": "", "payment:coins": "", "landuse": "", "wikidata": "", "wikipedia": "", "ref:miaaddr": "", "parking": "", "ref:walmart": "" }, "geometry": { "type": "MultiPolygon", "coordinates": [ [ [ [ -80.2375657, 25.7501926 ], [ -80.2379446, 25.7501862 ], [ -80.2379812, 25.7501734 ], [ -80.2380096, 25.7501533 ], [ -80.2380279, 25.7501221 ], [ -80.2380195, 25.7499499 ], [ -80.2380056, 25.7496663 ], [ -80.2379954, 25.7496425 ], [ -80.2379365, 25.7496113 ], [ -80.2379144, 25.7496117 ], [ -80.2379158, 25.7496806 ], [ -80.2375552, 25.7496866 ], [ -80.2375602, 25.7499062 ], [ -80.2375615, 25.7499612 ], [ -80.2375647, 25.7501102 ], [ -80.2375657, 25.7501926 ] ] ] ] } },
{ "type": "Feature", "properties": { "full_id": "w304502448", "osm_id": "304502448", "osm_type": "way", "building": "yes", "name": "Advance Auto Parts", "shop": "car_parts", "brand": "Advance Auto Parts", "brand:wikidata": "Q4686051", "brand:wikipedia": "en:Advance Auto Parts", "addr:city": "Miami", "addr:housenumber": "7701", "addr:postcode": "33138", "addr:street": "Biscayne Boulevard", "addr:state": "", "addr:unit": "", "operator": "", "website": "", "opening_hours": "", "building:levels": "", "fax": "", "phone": "", "addr:country": "", "alt_name": "", "level": "", "short_name": "", "internet_access": "", "internet_access:fee": "", "roof:shape": "", "height": "", "ref:miabldg": "", "payment:coins": "", "landuse": "", "wikidata": "", "wikipedia": "", "ref:miaaddr": "", "parking": "", "ref:walmart": "" }, "geometry": { "type": "MultiPolygon", "coordinates": [ [ [ [ -80.1842119, 25.8463624 ], [ -80.1842021, 25.8460488 ], [ -80.1841596, 25.8460074 ], [ -80.183891, 25.8460151 ], [ -80.1839009, 25.8463751 ], [ -80.1842119, 25.8463624 ] ] ] ] } },
{ "type": "Feature", "properties": { "full_id": "w310319091", "osm_id": "310319091", "osm_type": "way", "building": "yes", "name": "Wynwood Warehouse Project", "shop": "art", "brand": "", "brand:wikidata": "", "brand:wikipedia": "", "addr:city": "Miami", "addr:housenumber": "450", "addr:postcode": "", "addr:street": "Northwest 27th Street", "addr:state": "FL", "addr:unit": "", "operator": "", "website": "", "opening_hours": "", "building:levels": "", "fax": "", "phone": "", "addr:country": "", "alt_name": "", "level": "", "short_name": "", "internet_access": "", "internet_access:fee": "", "roof:shape": "", "height": "", "ref:miabldg": "", "payment:coins": "", "landuse": "", "wikidata": "", "wikipedia": "", "ref:miaaddr": "", "parking": "", "ref:walmart": "" }, "geometry": { "type": "MultiPolygon", "coordinates": [ [ [ [ -80.2027011, 25.8014433 ], [ -80.2024163, 25.8014494 ], [ -80.202424, 25.8016802 ], [ -80.2024243, 25.8016909 ], [ -80.2027102, 25.8016813 ], [ -80.2027011, 25.8014433 ] ] ] ] } },
{ "type": "Feature", "properties": { "full_id": "w311489890", "osm_id": "311489890", "osm_type": "way", "building": "yes", "name": "Sweat Records", "shop": "music", "brand": "", "brand:wikidata": "", "brand:wikipedia": "", "addr:city": "Miami", "addr:housenumber": "5505", "addr:postcode": "33137", "addr:street": "Northeast 2nd Avenue", "addr:state": "FL", "addr:unit": "", "operator": "", "website": "http:\/\/www.sweatrecordsmiami.com\/", "opening_hours": "", "building:levels": "", "fax": "", "phone": "", "addr:country": "", "alt_name": "", "level": "", "short_name": "", "internet_access": "", "internet_access:fee": "", "roof:shape": "", "height": "", "ref:miabldg": "", "payment:coins": "", "landuse": "", "wikidata": "", "wikipedia": "", "ref:miaaddr": "", "parking": "", "ref:walmart": "" }, "geometry": { "type": "MultiPolygon", "coordinates": [ [ [ [ -80.1918207, 25.8263163 ], [ -80.1918294, 25.8264792 ], [ -80.1914519, 25.8264919 ], [ -80.1914418, 25.8263283 ], [ -80.1916336, 25.8263211 ], [ -80.1918207, 25.8263163 ] ] ] ] } },
{ "type": "Feature", "properties": { "full_id": "w311838835", "osm_id": "311838835", "osm_type": "way", "building": "yes", "name": "SAWAT inc", "shop": "shoes", "brand": "", "brand:wikidata": "", "brand:wikipedia": "", "addr:city": "Miami", "addr:housenumber": "380", "addr:postcode": "33127", "addr:street": "Northwest 26th Street", "addr:state": "FL", "addr:unit": "", "operator": "", "website": "", "opening_hours": "", "building:levels": "1", "fax": "+1 305 576 1813", "phone": "+1 305 576 1722", "addr:country": "", "alt_name": "", "level": "", "short_name": "", "internet_access": "", "internet_access:fee": "", "roof:shape": "", "height": "", "ref:miabldg": "", "payment:coins": "", "landuse": "", "wikidata": "", "wikipedia": "", "ref:miaaddr": "", "parking": "", "ref:walmart": "" }, "geometry": { "type": "MultiPolygon", "coordinates": [ [ [ [ -80.2020839, 25.8012089 ], [ -80.2020728, 25.8009579 ], [ -80.2018086, 25.8009654 ], [ -80.2018142, 25.8012177 ], [ -80.2020839, 25.8012089 ] ] ] ] } },
{ "type": "Feature", "properties": { "full_id": "w314060514", "osm_id": "314060514", "osm_type": "way", "building": "yes", "name": "Locust Projects", "shop": "art", "brand": "", "brand:wikidata": "", "brand:wikipedia": "", "addr:city": "Miami", "addr:housenumber": "3852", "addr:postcode": "33127", "addr:street": "North Miami Avenue", "addr:state": "FL", "addr:unit": "", "operator": "", "website": "", "opening_hours": "", "building:levels": "", "fax": "", "phone": "(305) 576-8570", "addr:country": "", "alt_name": "", "level": "", "short_name": "", "internet_access": "", "internet_access:fee": "", "roof:shape": "", "height": "", "ref:miabldg": "", "payment:coins": "", "landuse": "", "wikidata": "", "wikipedia": "", "ref:miaaddr": "", "parking": "", "ref:walmart": "" }, "geometry": { "type": "MultiPolygon", "coordinates": [ [ [ [ -80.1958482, 25.8124215 ], [ -80.1958441, 25.8122995 ], [ -80.1956296, 25.8123031 ], [ -80.1956309, 25.8123273 ], [ -80.1955183, 25.8123321 ], [ -80.1955183, 25.812512 ], [ -80.1955263, 25.8125289 ], [ -80.195537, 25.8125494 ], [ -80.1955504, 25.8125639 ], [ -80.1955706, 25.8125736 ], [ -80.1955974, 25.8125736 ], [ -80.1958267, 25.81257 ], [ -80.1958187, 25.8124227 ], [ -80.1958482, 25.8124215 ] ] ] ] } },
{ "type": "Feature", "properties": { "full_id": "w314060697", "osm_id": "314060697", "osm_type": "way", "building": "yes", "name": "Yeelen Gallery", "shop": "art", "brand": "", "brand:wikidata": "", "brand:wikipedia": "", "addr:city": "Miami", "addr:housenumber": "294", "addr:postcode": "33127", "addr:street": "Northwest 54th Street", "addr:state": "FL", "addr:unit": "", "operator": "", "website": "", "opening_hours": "", "building:levels": "", "fax": "", "phone": "", "addr:country": "", "alt_name": "", "level": "", "short_name": "", "internet_access": "", "internet_access:fee": "", "roof:shape": "", "height": "", "ref:miabldg": "", "payment:coins": "", "landuse": "", "wikidata": "", "wikipedia": "", "ref:miaaddr": "", "parking": "", "ref:walmart": "" }, "geometry": { "type": "MultiPolygon", "coordinates": [ [ [ [ -80.2019459, 25.8246887 ], [ -80.2019593, 25.8249966 ], [ -80.2019379, 25.8250231 ], [ -80.2017796, 25.8250304 ], [ -80.2017635, 25.8246996 ], [ -80.2018534, 25.8246936 ], [ -80.2018708, 25.8246936 ], [ -80.2018708, 25.8246815 ], [ -80.2019218, 25.8246767 ], [ -80.2019218, 25.8246911 ], [ -80.2019459, 25.8246887 ] ] ] ] } },
{ "type": "Feature", "properties": { "full_id": "w314473370", "osm_id": "314473370", "osm_type": "way", "building": "yes", "name": "NAPA Auto Parts", "shop": "car_parts", "brand": "NAPA Auto Parts", "brand:wikidata": "Q6970842", "brand:wikipedia": "en:National Automotive Parts Association", "addr:city": "Miami", "addr:housenumber": "300", "addr:postcode": "33127", "addr:street": "Northwest 29th Street", "addr:state": "FL", "addr:unit": "", "operator": "", "website": "", "opening_hours": "", "building:levels": "", "fax": "", "phone": "", "addr:country": "", "alt_name": "", "level": "", "short_name": "", "internet_access": "", "internet_access:fee": "", "roof:shape": "", "height": "", "ref:miabldg": "", "payment:coins": "", "landuse": "", "wikidata": "", "wikipedia": "", "ref:miaaddr": "", "parking": "", "ref:walmart": "" }, "geometry": { "type": "MultiPolygon", "coordinates": [ [ [ [ -80.2014351, 25.8036758 ], [ -80.2012852, 25.8036855 ], [ -80.2012771, 25.8034669 ], [ -80.2014287, 25.8034597 ], [ -80.2014351, 25.8036758 ] ] ] ] } },
{ "type": "Feature", "properties": { "full_id": "w314808056", "osm_id": "314808056", "osm_type": "way", "building": "yes", "name": "Nice Walk Inc", "shop": "shoes", "brand": "", "brand:wikidata": "", "brand:wikipedia": "", "addr:city": "Miami", "addr:housenumber": "320", "addr:postcode": "33127", "addr:street": "Northwest 26th Street", "addr:state": "FL", "addr:unit": "", "operator": "", "website": "", "opening_hours": "Mo-Fr 09:00-17:00", "building:levels": "1", "fax": "", "phone": "", "addr:country": "", "alt_name": "", "level": "", "short_name": "", "internet_access": "", "internet_access:fee": "", "roof:shape": "", "height": "", "ref:miabldg": "", "payment:coins": "", "landuse": "", "wikidata": "", "wikipedia": "", "ref:miaaddr": "", "parking": "", "ref:walmart": "" }, "geometry": { "type": "MultiPolygon", "coordinates": [ [ [ [ -80.2016582, 25.8013313 ], [ -80.2016437, 25.8009998 ], [ -80.2017671, 25.8009975 ], [ -80.2017795, 25.801327 ], [ -80.2016582, 25.8013313 ] ] ] ] } },
{ "type": "Feature", "properties": { "full_id": "w314808059", "osm_id": "314808059", "osm_type": "way", "building": "yes", "name": "Zak The Baker", "shop": "bakery", "brand": "", "brand:wikidata": "", "brand:wikipedia": "", "addr:city": "", "addr:housenumber": "", "addr:postcode": "", "addr:street": "", "addr:state": "", "addr:unit": "", "operator": "", "website": "", "opening_hours": "", "building:levels": "", "fax": "", "phone": "", "addr:country": "", "alt_name": "", "level": "", "short_name": "", "internet_access": "", "internet_access:fee": "", "roof:shape": "", "height": "", "ref:miabldg": "", "payment:coins": "", "landuse": "", "wikidata": "", "wikipedia": "", "ref:miaaddr": "", "parking": "", "ref:walmart": "" }, "geometry": { "type": "MultiPolygon", "coordinates": [ [ [ [ -80.2008042, 25.8017433 ], [ -80.2007908, 25.8015067 ], [ -80.2009517, 25.801497 ], [ -80.2009892, 25.8015018 ], [ -80.2010187, 25.8015212 ], [ -80.2010322, 25.8015622 ], [ -80.2010429, 25.8017385 ], [ -80.2008042, 25.8017433 ] ] ] ] } },
{ "type": "Feature", "properties": { "full_id": "w315245781", "osm_id": "315245781", "osm_type": "way", "building": "yes", "name": "Out of the Closet Thrift Store", "shop": "second_hand", "brand": "", "brand:wikidata": "", "brand:wikipedia": "", "addr:city": "", "addr:housenumber": "", "addr:postcode": "", "addr:street": "Biscayne Boulevard", "addr:state": "", "addr:unit": "", "operator": "", "website": "", "opening_hours": "", "building:levels": "", "fax": "", "phone": "", "addr:country": "", "alt_name": "", "level": "", "short_name": "", "internet_access": "", "internet_access:fee": "", "roof:shape": "", "height": "", "ref:miabldg": "", "payment:coins": "", "landuse": "", "wikidata": "", "wikipedia": "", "ref:miaaddr": "", "parking": "", "ref:walmart": "" }, "geometry": { "type": "MultiPolygon", "coordinates": [ [ [ [ -80.1896879, 25.8046244 ], [ -80.1895185, 25.8046243 ], [ -80.1895078, 25.8043629 ], [ -80.1895112, 25.8043514 ], [ -80.1895212, 25.8043442 ], [ -80.1895313, 25.8043406 ], [ -80.189705, 25.804337 ], [ -80.1897079, 25.804415 ], [ -80.1896938, 25.8044154 ], [ -80.1896984, 25.8045388 ], [ -80.1896847, 25.8045392 ], [ -80.1896879, 25.8046244 ] ] ] ] } },
{ "type": "Feature", "properties": { "full_id": "w316480076", "osm_id": "316480076", "osm_type": "way", "building": "yes", "name": "Sabal Palm Shopping Center", "shop": "mall", "brand": "", "brand:wikidata": "", "brand:wikipedia": "", "addr:city": "", "addr:housenumber": "", "addr:postcode": "", "addr:street": "", "addr:state": "", "addr:unit": "", "operator": "", "website": "", "opening_hours": "", "building:levels": "", "fax": "", "phone": "", "addr:country": "", "alt_name": "", "level": "", "short_name": "", "internet_access": "", "internet_access:fee": "", "roof:shape": "", "height": "", "ref:miabldg": "", "payment:coins": "", "landuse": "", "wikidata": "", "wikipedia": "", "ref:miaaddr": "", "parking": "", "ref:walmart": "" }, "geometry": { "type": "MultiPolygon", "coordinates": [ [ [ [ -80.1914504, 25.8252539 ], [ -80.1913217, 25.8247541 ], [ -80.1914209, 25.8247276 ], [ -80.1913968, 25.824025 ], [ -80.1913619, 25.824025 ], [ -80.1913592, 25.8239091 ], [ -80.1913378, 25.8239091 ], [ -80.1912734, 25.8235566 ], [ -80.191606, 25.8235397 ], [ -80.1916006, 25.8233972 ], [ -80.191319, 25.8234093 ], [ -80.1913217, 25.8234359 ], [ -80.1911554, 25.8234407 ], [ -80.1911285, 25.8234649 ], [ -80.191201, 25.825307 ], [ -80.1913646, 25.8253022 ], [ -80.1913968, 25.8252998 ], [ -80.1914075, 25.8252756 ], [ -80.1914102, 25.8252539 ], [ -80.1914504, 25.8252539 ] ] ] ] } },
{ "type": "Feature", "properties": { "full_id": "w316609806", "osm_id": "316609806", "osm_type": "way", "building": "yes", "name": "Ralph Pucci", "shop": "furniture", "brand": "", "brand:wikidata": "", "brand:wikipedia": "", "addr:city": "Miami", "addr:housenumber": "343", "addr:postcode": "33127", "addr:street": "Northwest 25th Street", "addr:state": "FL", "addr:unit": "", "operator": "", "website": "", "opening_hours": "", "building:levels": "", "fax": "305-438-3791", "phone": "+1 305 438 3771", "addr:country": "", "alt_name": "", "level": "", "short_name": "", "internet_access": "", "internet_access:fee": "", "roof:shape": "", "height": "", "ref:miabldg": "", "payment:coins": "", "landuse": "", "wikidata": "", "wikipedia": "", "ref:miaaddr": "", "parking": "", "ref:walmart": "" }, "geometry": { "type": "MultiPolygon", "coordinates": [ [ [ [ -80.2021036, 25.8009493 ], [ -80.2021027, 25.8009273 ], [ -80.2020951, 25.8007444 ], [ -80.2020313, 25.8007483 ], [ -80.2020336, 25.8008089 ], [ -80.2018396, 25.8008181 ], [ -80.2018379, 25.800719 ], [ -80.2017729, 25.8007201 ], [ -80.2017816, 25.8009476 ], [ -80.2017845, 25.800961 ], [ -80.2021036, 25.8009493 ] ] ] ] } },
{ "type": "Feature", "properties": { "full_id": "w316609809", "osm_id": "316609809", "osm_type": "way", "building": "yes", "name": "Now Contemporary Art", "shop": "art", "brand": "", "brand:wikidata": "", "brand:wikipedia": "", "addr:city": "Miami", "addr:housenumber": "337", "addr:postcode": "33127", "addr:street": "Northwest 25th Street", "addr:state": "FL", "addr:unit": "", "operator": "", "website": "", "opening_hours": "Tu-Sa 10:00-18:00; Mo", "building:levels": "", "fax": "", "phone": "+1 305 571 8181", "addr:country": "", "alt_name": "", "level": "", "short_name": "", "internet_access": "", "internet_access:fee": "", "roof:shape": "", "height": "", "ref:miabldg": "", "payment:coins": "", "landuse": "", "wikidata": "", "wikipedia": "", "ref:miaaddr": "", "parking": "", "ref:walmart": "" }, "geometry": { "type": "MultiPolygon", "coordinates": [ [ [ [ -80.2017816, 25.8009476 ], [ -80.2016281, 25.8009546 ], [ -80.2016217, 25.8007293 ], [ -80.2017729, 25.8007201 ], [ -80.2017816, 25.8009476 ] ] ] ] } },
{ "type": "Feature", "properties": { "full_id": "w316609810", "osm_id": "316609810", "osm_type": "way", "building": "yes", "name": "Cash & Carry Shoes", "shop": "shoes", "brand": "", "brand:wikidata": "", "brand:wikipedia": "", "addr:city": "Miami", "addr:housenumber": "318", "addr:postcode": "33127", "addr:street": "Northwest 25th Street", "addr:state": "FL", "addr:unit": "", "operator": "", "website": "", "opening_hours": "", "building:levels": "", "fax": "", "phone": "(305) 576-9383", "addr:country": "", "alt_name": "", "level": "", "short_name": "", "internet_access": "", "internet_access:fee": "", "roof:shape": "", "height": "", "ref:miabldg": "", "payment:coins": "", "landuse": "", "wikidata": "", "wikipedia": "", "ref:miaaddr": "", "parking": "", "ref:walmart": "" }, "geometry": { "type": "MultiPolygon", "coordinates": [ [ [ [ -80.2017468, 25.8003432 ], [ -80.2017521, 25.8004879 ], [ -80.2016918, 25.800489 ], [ -80.2016928, 25.800516 ], [ -80.2016554, 25.8005172 ], [ -80.201659, 25.8005865 ], [ -80.2013085, 25.8005948 ], [ -80.2013, 25.8003678 ], [ -80.2012998, 25.8003611 ], [ -80.201607, 25.8003488 ], [ -80.2017468, 25.8003432 ] ] ] ] } },
{ "type": "Feature", "properties": { "full_id": "w316621086", "osm_id": "316621086", "osm_type": "way", "building": "yes", "name": "Fireman Derek's World Famous Pies", "shop": "bakery", "brand": "", "brand:wikidata": "", "brand:wikipedia": "", "addr:city": "Miami", "addr:housenumber": "2818", "addr:postcode": "", "addr:street": "North Miami Avenue", "addr:state": "FL", "addr:unit": "", "operator": "", "website": "", "opening_hours": "", "building:levels": "", "fax": "", "phone": "", "addr:country": "", "alt_name": "", "level": "", "short_name": "", "internet_access": "", "internet_access:fee": "", "roof:shape": "", "height": "", "ref:miabldg": "", "payment:coins": "", "landuse": "", "wikidata": "", "wikipedia": "", "ref:miaaddr": "", "parking": "", "ref:walmart": "" }, "geometry": { "type": "MultiPolygon", "coordinates": [ [ [ [ -80.195204, 25.8034607 ], [ -80.1952011, 25.8033505 ], [ -80.1953329, 25.8033477 ], [ -80.1953358, 25.8034579 ], [ -80.195204, 25.8034607 ] ] ] ] } },
{ "type": "Feature", "properties": { "full_id": "w316621087", "osm_id": "316621087", "osm_type": "way", "building": "yes", "name": "RazzleDazzle", "shop": "hairdresser", "brand": "", "brand:wikidata": "", "brand:wikipedia": "", "addr:city": "Miami", "addr:housenumber": "2814", "addr:postcode": "", "addr:street": "North Miami Avenue", "addr:state": "FL", "addr:unit": "", "operator": "", "website": "", "opening_hours": "", "building:levels": "", "fax": "", "phone": "", "addr:country": "", "alt_name": "", "level": "", "short_name": "", "internet_access": "", "internet_access:fee": "", "roof:shape": "", "height": "", "ref:miabldg": "", "payment:coins": "", "landuse": "", "wikidata": "", "wikipedia": "", "ref:miaaddr": "", "parking": "", "ref:walmart": "" }, "geometry": { "type": "MultiPolygon", "coordinates": [ [ [ [ -80.1953846, 25.8032359 ], [ -80.1951936, 25.8032388 ], [ -80.1951954, 25.8033338 ], [ -80.1953147, 25.803332 ], [ -80.1953142, 25.8033074 ], [ -80.195386, 25.8033063 ], [ -80.1953846, 25.8032359 ] ] ] ] } },
{ "type": "Feature", "properties": { "full_id": "w319425175", "osm_id": "319425175", "osm_type": "way", "building": "yes", "name": "Publix", "shop": "supermarket", "brand": "Publix", "brand:wikidata": "Q672170", "brand:wikipedia": "en:Publix", "addr:city": "", "addr:housenumber": "", "addr:postcode": "", "addr:street": "", "addr:state": "", "addr:unit": "", "operator": "", "website": "", "opening_hours": "", "building:levels": "", "fax": "", "phone": "", "addr:country": "", "alt_name": "", "level": "", "short_name": "", "internet_access": "", "internet_access:fee": "", "roof:shape": "", "height": "", "ref:miabldg": "", "payment:coins": "", "landuse": "", "wikidata": "", "wikipedia": "", "ref:miaaddr": "", "parking": "", "ref:walmart": "" }, "geometry": { "type": "MultiPolygon", "coordinates": [ [ [ [ -80.1996319, 25.7679489 ], [ -80.1993449, 25.7679611 ], [ -80.1993506, 25.768071 ], [ -80.1992917, 25.7680735 ], [ -80.199266, 25.7680575 ], [ -80.1992581, 25.7680361 ], [ -80.1992306, 25.7673451 ], [ -80.1995115, 25.7673355 ], [ -80.1995266, 25.7673163 ], [ -80.1995436, 25.7673044 ], [ -80.199579, 25.7672943 ], [ -80.1996186, 25.7673001 ], [ -80.1996517, 25.7673234 ], [ -80.1996677, 25.7673572 ], [ -80.1996598, 25.7674173 ], [ -80.1996832, 25.7674379 ], [ -80.199687, 25.7675107 ], [ -80.1996091, 25.767514 ], [ -80.1996319, 25.7679489 ] ] ] ] } },
{ "type": "Feature", "properties": { "full_id": "w319426353", "osm_id": "319426353", "osm_type": "way", "building": "yes", "name": "Publix", "shop": "supermarket", "brand": "Publix", "brand:wikidata": "Q672170", "brand:wikipedia": "en:Publix", "addr:city": "Miami", "addr:housenumber": "911", "addr:postcode": "33130", "addr:street": "Southwest 1st Avenue", "addr:state": "FL", "addr:unit": "", "operator": "", "website": "publix.com", "opening_hours": "", "building:levels": "", "fax": "", "phone": "+1 305 358 1575", "addr:country": "US", "alt_name": "", "level": "", "short_name": "", "internet_access": "", "internet_access:fee": "", "roof:shape": "", "height": "", "ref:miabldg": "", "payment:coins": "", "landuse": "", "wikidata": "", "wikipedia": "", "ref:miaaddr": "", "parking": "", "ref:walmart": "" }, "geometry": { "type": "MultiPolygon", "coordinates": [ [ [ [ -80.1951004, 25.7652922 ], [ -80.1946528, 25.7652994 ], [ -80.1946254, 25.7645575 ], [ -80.1950628, 25.7645515 ], [ -80.1951004, 25.7652922 ] ] ] ] } },
{ "type": "Feature", "properties": { "full_id": "w319768605", "osm_id": "319768605", "osm_type": "way", "building": "yes", "name": "The Home Depot", "shop": "doityourself", "brand": "The Home Depot", "brand:wikidata": "Q864407", "brand:wikipedia": "en:The Home Depot", "addr:city": "Miami", "addr:housenumber": "3038", "addr:postcode": "33135", "addr:street": "Southwest 8th Street", "addr:state": "FL", "addr:unit": "", "operator": "", "website": "", "opening_hours": "", "building:levels": "", "fax": "", "phone": "", "addr:country": "", "alt_name": "Home Depot", "level": "", "short_name": "", "internet_access": "", "internet_access:fee": "", "roof:shape": "", "height": "", "ref:miabldg": "", "payment:coins": "", "landuse": "", "wikidata": "", "wikipedia": "", "ref:miaaddr": "", "parking": "", "ref:walmart": "" }, "geometry": { "type": "MultiPolygon", "coordinates": [ [ [ [ -80.2432904, 25.7627479 ], [ -80.2433309, 25.7637988 ], [ -80.2442608, 25.7637697 ], [ -80.2442329, 25.7630459 ], [ -80.2441474, 25.7630486 ], [ -80.2441375, 25.7627897 ], [ -80.2436445, 25.7628051 ], [ -80.2436419, 25.7627369 ], [ -80.2432904, 25.7627479 ] ] ] ] } },
{ "type": "Feature", "properties": { "full_id": "w322994111", "osm_id": "322994111", "osm_type": "way", "building": "yes", "name": "Formula One Sports Cars", "shop": "car", "brand": "", "brand:wikidata": "", "brand:wikipedia": "", "addr:city": "Miami", "addr:housenumber": "3800", "addr:postcode": "33146", "addr:street": "Southwest 40th Street", "addr:state": "Florida", "addr:unit": "", "operator": "", "website": "http:\/\/formula-1-sport-cars.ebizautos.com\/", "opening_hours": "Mo-We 09:00-18:30; Fr 09:00-18:30; Sa 10:00-16:00", "building:levels": "", "fax": "", "phone": "+1 (305) 443 1515", "addr:country": "", "alt_name": "", "level": "", "short_name": "", "internet_access": "", "internet_access:fee": "", "roof:shape": "", "height": "", "ref:miabldg": "", "payment:coins": "", "landuse": "", "wikidata": "", "wikipedia": "", "ref:miaaddr": "", "parking": "", "ref:walmart": "" }, "geometry": { "type": "MultiPolygon", "coordinates": [ [ [ [ -80.2560946, 25.734716 ], [ -80.2560852, 25.7345759 ], [ -80.2563682, 25.7345626 ], [ -80.2563776, 25.7347015 ], [ -80.2560946, 25.734716 ] ] ] ] } },
{ "type": "Feature", "properties": { "full_id": "w356969837", "osm_id": "356969837", "osm_type": "way", "building": "yes", "name": "", "shop": "florist", "brand": "", "brand:wikidata": "", "brand:wikipedia": "", "addr:city": "", "addr:housenumber": "", "addr:postcode": "", "addr:street": "", "addr:state": "", "addr:unit": "", "operator": "", "website": "", "opening_hours": "", "building:levels": "", "fax": "", "phone": "", "addr:country": "", "alt_name": "", "level": "", "short_name": "", "internet_access": "", "internet_access:fee": "", "roof:shape": "", "height": "", "ref:miabldg": "", "payment:coins": "", "landuse": "", "wikidata": "", "wikipedia": "", "ref:miaaddr": "", "parking": "", "ref:walmart": "" }, "geometry": { "type": "MultiPolygon", "coordinates": [ [ [ [ -80.2558637, 25.779134 ], [ -80.2558324, 25.7791143 ], [ -80.2558717, 25.7790723 ], [ -80.2559023, 25.7790933 ], [ -80.2558637, 25.779134 ] ] ] ] } },
{ "type": "Feature", "properties": { "full_id": "w359450819", "osm_id": "359450819", "osm_type": "way", "building": "yes", "name": "Rafiul Food Store", "shop": "convenience", "brand": "", "brand:wikidata": "", "brand:wikipedia": "", "addr:city": "Miami", "addr:housenumber": "7400", "addr:postcode": "33138", "addr:street": "Biscayne Boulevard", "addr:state": "FL", "addr:unit": "", "operator": "", "website": "", "opening_hours": "", "building:levels": "", "fax": "", "phone": "", "addr:country": "", "alt_name": "", "level": "", "short_name": "", "internet_access": "", "internet_access:fee": "", "roof:shape": "", "height": "", "ref:miabldg": "", "payment:coins": "", "landuse": "", "wikidata": "", "wikipedia": "", "ref:miaaddr": "", "parking": "", "ref:walmart": "" }, "geometry": { "type": "MultiPolygon", "coordinates": [ [ [ [ -80.1847367, 25.8433172 ], [ -80.1845841, 25.8433203 ], [ -80.1845811, 25.8431983 ], [ -80.1845883, 25.8431895 ], [ -80.1845994, 25.8431828 ], [ -80.1847333, 25.8431799 ], [ -80.1847367, 25.8433172 ] ] ] ] } },
{ "type": "Feature", "properties": { "full_id": "w375788325", "osm_id": "375788325", "osm_type": "way", "building": "yes", "name": "Mindy Solomon Gallery", "shop": "art", "brand": "", "brand:wikidata": "", "brand:wikipedia": "", "addr:city": "", "addr:housenumber": "", "addr:postcode": "", "addr:street": "", "addr:state": "", "addr:unit": "", "operator": "", "website": "", "opening_hours": "", "building:levels": "", "fax": "", "phone": "", "addr:country": "", "alt_name": "", "level": "", "short_name": "", "internet_access": "", "internet_access:fee": "", "roof:shape": "", "height": "", "ref:miabldg": "", "payment:coins": "", "landuse": "", "wikidata": "", "wikipedia": "", "ref:miaaddr": "", "parking": "", "ref:walmart": "" }, "geometry": { "type": "MultiPolygon", "coordinates": [ [ [ [ -80.1928809, 25.8524994 ], [ -80.1928792, 25.8523219 ], [ -80.1924755, 25.8523347 ], [ -80.1924797, 25.8525107 ], [ -80.1925739, 25.8525061 ], [ -80.1928809, 25.8524994 ] ] ] ] } },
{ "type": "Feature", "properties": { "full_id": "w375788351", "osm_id": "375788351", "osm_type": "way", "building": "yes", "name": "fu", "shop": "art", "brand": "", "brand:wikidata": "", "brand:wikipedia": "", "addr:city": "", "addr:housenumber": "", "addr:postcode": "", "addr:street": "", "addr:state": "", "addr:unit": "", "operator": "", "website": "", "opening_hours": "", "building:levels": "", "fax": "", "phone": "", "addr:country": "", "alt_name": "", "level": "2", "short_name": "", "internet_access": "", "internet_access:fee": "", "roof:shape": "", "height": "", "ref:miabldg": "", "payment:coins": "", "landuse": "", "wikidata": "", "wikipedia": "", "ref:miaaddr": "", "parking": "", "ref:walmart": "" }, "geometry": { "type": "MultiPolygon", "coordinates": [ [ [ [ -80.1928759, 25.8521858 ], [ -80.1928739, 25.8521345 ], [ -80.1926314, 25.8521404 ], [ -80.1926347, 25.8521925 ], [ -80.1928759, 25.8521858 ] ] ] ] } },
{ "type": "Feature", "properties": { "full_id": "w375788359", "osm_id": "375788359", "osm_type": "way", "building": "yes", "name": "", "shop": "yes", "brand": "", "brand:wikidata": "", "brand:wikipedia": "", "addr:city": "", "addr:housenumber": "", "addr:postcode": "", "addr:street": "", "addr:state": "", "addr:unit": "", "operator": "", "website": "", "opening_hours": "", "building:levels": "", "fax": "", "phone": "", "addr:country": "", "alt_name": "", "level": "", "short_name": "", "internet_access": "", "internet_access:fee": "", "roof:shape": "", "height": "", "ref:miabldg": "", "payment:coins": "", "landuse": "", "wikidata": "", "wikipedia": "", "ref:miaaddr": "", "parking": "", "ref:walmart": "" }, "geometry": { "type": "MultiPolygon", "coordinates": [ [ [ [ -80.1933271, 25.8514275 ], [ -80.1931431, 25.8514333 ], [ -80.1931335, 25.8511837 ], [ -80.1932824, 25.851179 ], [ -80.193289, 25.8513491 ], [ -80.193324, 25.851348 ], [ -80.1933271, 25.8514275 ] ] ] ] } },
{ "type": "Feature", "properties": { "full_id": "w375788360", "osm_id": "375788360", "osm_type": "way", "building": "yes", "name": "", "shop": "yes", "brand": "", "brand:wikidata": "", "brand:wikipedia": "", "addr:city": "", "addr:housenumber": "", "addr:postcode": "", "addr:street": "", "addr:state": "", "addr:unit": "", "operator": "", "website": "", "opening_hours": "", "building:levels": "", "fax": "", "phone": "", "addr:country": "", "alt_name": "", "level": "", "short_name": "", "internet_access": "", "internet_access:fee": "", "roof:shape": "", "height": "", "ref:miabldg": "", "payment:coins": "", "landuse": "", "wikidata": "", "wikipedia": "", "ref:miaaddr": "", "parking": "", "ref:walmart": "" }, "geometry": { "type": "MultiPolygon", "coordinates": [ [ [ [ -80.1929187, 25.8533711 ], [ -80.1928258, 25.8533721 ], [ -80.1928269, 25.8533505 ], [ -80.1928127, 25.8533505 ], [ -80.1928127, 25.8533377 ], [ -80.1927887, 25.8533377 ], [ -80.1927854, 25.8532001 ], [ -80.192911, 25.8531971 ], [ -80.1929187, 25.8533711 ] ] ] ] } },
{ "type": "Feature", "properties": { "full_id": "w375788364", "osm_id": "375788364", "osm_type": "way", "building": "yes", "name": "AT&T", "shop": "mobile_phone", "brand": "AT&T", "brand:wikidata": "Q298594", "brand:wikipedia": "en:AT&T Mobility", "addr:city": "", "addr:housenumber": "", "addr:postcode": "", "addr:street": "", "addr:state": "", "addr:unit": "", "operator": "", "website": "", "opening_hours": "", "building:levels": "", "fax": "", "phone": "", "addr:country": "", "alt_name": "", "level": "", "short_name": "", "internet_access": "", "internet_access:fee": "", "roof:shape": "", "height": "", "ref:miabldg": "", "payment:coins": "", "landuse": "", "wikidata": "", "wikipedia": "", "ref:miaaddr": "", "parking": "", "ref:walmart": "" }, "geometry": { "type": "MultiPolygon", "coordinates": [ [ [ [ -80.1954092, 25.8528629 ], [ -80.195407, 25.8524992 ], [ -80.1948925, 25.8525012 ], [ -80.194898, 25.8527921 ], [ -80.1948674, 25.8527892 ], [ -80.1948696, 25.8528659 ], [ -80.1950193, 25.8528659 ], [ -80.1950214, 25.8529357 ], [ -80.1952738, 25.8529317 ], [ -80.1952749, 25.8528619 ], [ -80.1954092, 25.8528629 ] ] ] ] } },
{ "type": "Feature", "properties": { "full_id": "w375884161", "osm_id": "375884161", "osm_type": "way", "building": "yes", "name": "WIC", "shop": "yes", "brand": "", "brand:wikidata": "", "brand:wikipedia": "", "addr:city": "", "addr:housenumber": "", "addr:postcode": "", "addr:street": "", "addr:state": "", "addr:unit": "", "operator": "", "website": "", "opening_hours": "", "building:levels": "", "fax": "", "phone": "", "addr:country": "", "alt_name": "", "level": "", "short_name": "", "internet_access": "", "internet_access:fee": "", "roof:shape": "", "height": "", "ref:miabldg": "", "payment:coins": "", "landuse": "", "wikidata": "", "wikipedia": "", "ref:miaaddr": "", "parking": "", "ref:walmart": "" }, "geometry": { "type": "MultiPolygon", "coordinates": [ [ [ [ -80.1933403, 25.8506095 ], [ -80.1933391, 25.8505682 ], [ -80.1931012, 25.850574 ], [ -80.1931024, 25.8506153 ], [ -80.1933403, 25.8506095 ] ] ] ] } },
{ "type": "Feature", "properties": { "full_id": "w375884163", "osm_id": "375884163", "osm_type": "way", "building": "yes", "name": "Jean Simmon Brutus Botanica", "shop": "religion", "brand": "", "brand:wikidata": "", "brand:wikipedia": "", "addr:city": "", "addr:housenumber": "", "addr:postcode": "", "addr:street": "", "addr:state": "", "addr:unit": "", "operator": "", "website": "", "opening_hours": "", "building:levels": "", "fax": "", "phone": "", "addr:country": "", "alt_name": "", "level": "", "short_name": "", "internet_access": "", "internet_access:fee": "", "roof:shape": "", "height": "", "ref:miabldg": "", "payment:coins": "", "landuse": "", "wikidata": "", "wikipedia": "", "ref:miaaddr": "", "parking": "", "ref:walmart": "" }, "geometry": { "type": "MultiPolygon", "coordinates": [ [ [ [ -80.1933378, 25.8505245 ], [ -80.1933366, 25.850484 ], [ -80.1930987, 25.8504898 ], [ -80.1930999, 25.8505303 ], [ -80.1933378, 25.8505245 ] ] ] ] } },
{ "type": "Feature", "properties": { "full_id": "w375884164", "osm_id": "375884164", "osm_type": "way", "building": "yes", "name": "", "shop": "vacant", "brand": "", "brand:wikidata": "", "brand:wikipedia": "", "addr:city": "", "addr:housenumber": "", "addr:postcode": "", "addr:street": "", "addr:state": "", "addr:unit": "", "operator": "", "website": "", "opening_hours": "", "building:levels": "", "fax": "", "phone": "", "addr:country": "", "alt_name": "", "level": "", "short_name": "", "internet_access": "", "internet_access:fee": "", "roof:shape": "", "height": "", "ref:miabldg": "", "payment:coins": "", "landuse": "", "wikidata": "", "wikipedia": "", "ref:miaaddr": "", "parking": "", "ref:walmart": "" }, "geometry": { "type": "MultiPolygon", "coordinates": [ [ [ [ -80.1933366, 25.850484 ], [ -80.1933352, 25.8504379 ], [ -80.1930973, 25.8504437 ], [ -80.1930987, 25.8504898 ], [ -80.1933366, 25.850484 ] ] ] ] } },
{ "type": "Feature", "properties": { "full_id": "w375884165", "osm_id": "375884165", "osm_type": "way", "building": "yes", "name": "It's Me Hair Boutique", "shop": "hairdresser", "brand": "", "brand:wikidata": "", "brand:wikipedia": "", "addr:city": "", "addr:housenumber": "", "addr:postcode": "", "addr:street": "", "addr:state": "", "addr:unit": "", "operator": "", "website": "", "opening_hours": "", "building:levels": "", "fax": "", "phone": "", "addr:country": "", "alt_name": "", "level": "", "short_name": "", "internet_access": "", "internet_access:fee": "", "roof:shape": "", "height": "", "ref:miabldg": "", "payment:coins": "", "landuse": "", "wikidata": "", "wikipedia": "", "ref:miaaddr": "", "parking": "", "ref:walmart": "" }, "geometry": { "type": "MultiPolygon", "coordinates": [ [ [ [ -80.1933352, 25.8504379 ], [ -80.1933327, 25.8503556 ], [ -80.1930948, 25.8503614 ], [ -80.1930973, 25.8504437 ], [ -80.1933352, 25.8504379 ] ] ] ] } },
{ "type": "Feature", "properties": { "full_id": "w375884167", "osm_id": "375884167", "osm_type": "way", "building": "yes", "name": "Airline Ticketing Center", "shop": "travel_agency", "brand": "", "brand:wikidata": "", "brand:wikipedia": "", "addr:city": "", "addr:housenumber": "", "addr:postcode": "", "addr:street": "", "addr:state": "", "addr:unit": "", "operator": "", "website": "", "opening_hours": "", "building:levels": "", "fax": "", "phone": "", "addr:country": "", "alt_name": "", "level": "", "short_name": "", "internet_access": "", "internet_access:fee": "", "roof:shape": "", "height": "", "ref:miabldg": "", "payment:coins": "", "landuse": "", "wikidata": "", "wikipedia": "", "ref:miaaddr": "", "parking": "", "ref:walmart": "" }, "geometry": { "type": "MultiPolygon", "coordinates": [ [ [ [ -80.1931847, 25.8499855 ], [ -80.1931824, 25.849908 ], [ -80.19311, 25.8499105 ], [ -80.1930794, 25.8499372 ], [ -80.1930836, 25.849988 ], [ -80.1931847, 25.8499855 ] ] ] ] } },
{ "type": "Feature", "properties": { "full_id": "w375884168", "osm_id": "375884168", "osm_type": "way", "building": "yes", "name": "", "shop": "vacant", "brand": "", "brand:wikidata": "", "brand:wikipedia": "", "addr:city": "", "addr:housenumber": "", "addr:postcode": "", "addr:street": "", "addr:state": "", "addr:unit": "", "operator": "", "website": "", "opening_hours": "", "building:levels": "", "fax": "", "phone": "", "addr:country": "", "alt_name": "", "level": "", "short_name": "", "internet_access": "", "internet_access:fee": "", "roof:shape": "", "height": "", "ref:miabldg": "", "payment:coins": "", "landuse": "", "wikidata": "", "wikipedia": "", "ref:miaaddr": "", "parking": "", "ref:walmart": "" }, "geometry": { "type": "MultiPolygon", "coordinates": [ [ [ [ -80.1933228, 25.8500242 ], [ -80.1930849, 25.8500299 ], [ -80.1930836, 25.849988 ], [ -80.1933215, 25.8499822 ], [ -80.1933228, 25.8500242 ] ] ] ] } },
{ "type": "Feature", "properties": { "full_id": "w375884169", "osm_id": "375884169", "osm_type": "way", "building": "yes", "name": "Virgile's Tuxedo", "shop": "clothes", "brand": "", "brand:wikidata": "", "brand:wikipedia": "", "addr:city": "", "addr:housenumber": "", "addr:postcode": "", "addr:street": "", "addr:state": "", "addr:unit": "", "operator": "", "website": "", "opening_hours": "", "building:levels": "", "fax": "", "phone": "", "addr:country": "", "alt_name": "", "level": "", "short_name": "", "internet_access": "", "internet_access:fee": "", "roof:shape": "", "height": "", "ref:miabldg": "", "payment:coins": "", "landuse": "", "wikidata": "", "wikipedia": "", "ref:miaaddr": "", "parking": "", "ref:walmart": "" }, "geometry": { "type": "MultiPolygon", "coordinates": [ [ [ [ -80.1933228, 25.8500242 ], [ -80.1933243, 25.8500733 ], [ -80.1930864, 25.850079 ], [ -80.1930849, 25.8500299 ], [ -80.1933228, 25.8500242 ] ] ] ] } },
{ "type": "Feature", "properties": { "full_id": "w375884171", "osm_id": "375884171", "osm_type": "way", "building": "yes", "name": "Unique Photo Studio", "shop": "photo", "brand": "", "brand:wikidata": "", "brand:wikipedia": "", "addr:city": "", "addr:housenumber": "", "addr:postcode": "", "addr:street": "", "addr:state": "", "addr:unit": "", "operator": "", "website": "", "opening_hours": "", "building:levels": "", "fax": "", "phone": "", "addr:country": "", "alt_name": "", "level": "", "short_name": "", "internet_access": "", "internet_access:fee": "", "roof:shape": "", "height": "", "ref:miabldg": "", "payment:coins": "", "landuse": "", "wikidata": "", "wikipedia": "", "ref:miaaddr": "", "parking": "", "ref:walmart": "" }, "geometry": { "type": "MultiPolygon", "coordinates": [ [ [ [ -80.1933243, 25.8500733 ], [ -80.1933271, 25.8501676 ], [ -80.1930892, 25.8501733 ], [ -80.1930864, 25.850079 ], [ -80.1933243, 25.8500733 ] ] ] ] } },
{ "type": "Feature", "properties": { "full_id": "w401434247", "osm_id": "401434247", "osm_type": "way", "building": "yes", "name": "CVS Pharmacy", "shop": "chemist", "brand": "CVS Pharmacy", "brand:wikidata": "Q2078880", "brand:wikipedia": "en:CVS Pharmacy", "addr:city": "Miami", "addr:housenumber": "591", "addr:postcode": "33138", "addr:street": "Northeast 79th Street", "addr:state": "FL", "addr:unit": "", "operator": "", "website": "", "opening_hours": "", "building:levels": "1", "fax": "", "phone": "", "addr:country": "", "alt_name": "", "level": "", "short_name": "CVS", "internet_access": "", "internet_access:fee": "", "roof:shape": "", "height": "", "ref:miabldg": "", "payment:coins": "", "landuse": "", "wikidata": "", "wikipedia": "", "ref:miaaddr": "", "parking": "", "ref:walmart": "" }, "geometry": { "type": "MultiPolygon", "coordinates": [ [ [ [ -80.1850868, 25.8479686 ], [ -80.1848115, 25.8479801 ], [ -80.1848341, 25.8484157 ], [ -80.1851094, 25.8484041 ], [ -80.1850868, 25.8479686 ] ] ] ] } },
{ "type": "Feature", "properties": { "full_id": "w406214632", "osm_id": "406214632", "osm_type": "way", "building": "commercial", "name": "Publix", "shop": "supermarket", "brand": "Publix", "brand:wikidata": "Q672170", "brand:wikipedia": "en:Publix", "addr:city": "", "addr:housenumber": "", "addr:postcode": "", "addr:street": "", "addr:state": "", "addr:unit": "", "operator": "", "website": "", "opening_hours": "Mo-Sa 07:00-23:00; Su 07:00-22:00", "building:levels": "", "fax": "", "phone": "", "addr:country": "", "alt_name": "", "level": "", "short_name": "", "internet_access": "wlan", "internet_access:fee": "no", "roof:shape": "flat", "height": "", "ref:miabldg": "", "payment:coins": "", "landuse": "", "wikidata": "", "wikipedia": "", "ref:miaaddr": "", "parking": "", "ref:walmart": "" }, "geometry": { "type": "MultiPolygon", "coordinates": [ [ [ [ -80.2890193, 25.7802114 ], [ -80.2890408, 25.7802983 ], [ -80.2893305, 25.7802403 ], [ -80.2893466, 25.7803273 ], [ -80.289529, 25.7802983 ], [ -80.2893869, 25.7796497 ], [ -80.2893788, 25.7796124 ], [ -80.2891915, 25.7796492 ], [ -80.2890439, 25.7796783 ], [ -80.288912, 25.7797042 ], [ -80.2890193, 25.7802114 ] ] ] ] } },
{ "type": "Feature", "properties": { "full_id": "w419275831", "osm_id": "419275831", "osm_type": "way", "building": "yes", "name": "Don Bailey Carpets", "shop": "carpet", "brand": "", "brand:wikidata": "", "brand:wikipedia": "", "addr:city": "", "addr:housenumber": "", "addr:postcode": "", "addr:street": "", "addr:state": "", "addr:unit": "", "operator": "", "website": "", "opening_hours": "", "building:levels": "", "fax": "", "phone": "", "addr:country": "", "alt_name": "", "level": "", "short_name": "", "internet_access": "", "internet_access:fee": "", "roof:shape": "", "height": "", "ref:miabldg": "", "payment:coins": "", "landuse": "", "wikidata": "", "wikipedia": "", "ref:miaaddr": "", "parking": "", "ref:walmart": "" }, "geometry": { "type": "MultiPolygon", "coordinates": [ [ [ [ -80.1853567, 25.8520687 ], [ -80.1849343, 25.8520836 ], [ -80.1849256, 25.8518458 ], [ -80.1849352, 25.85182 ], [ -80.185142, 25.8516542 ], [ -80.1853401, 25.8516495 ], [ -80.1853567, 25.8520687 ] ] ] ] } },
{ "type": "Feature", "properties": { "full_id": "w434839505", "osm_id": "434839505", "osm_type": "way", "building": "yes", "name": "", "shop": "antiques", "brand": "", "brand:wikidata": "", "brand:wikipedia": "", "addr:city": "", "addr:housenumber": "", "addr:postcode": "", "addr:street": "", "addr:state": "", "addr:unit": "", "operator": "", "website": "", "opening_hours": "", "building:levels": "", "fax": "", "phone": "", "addr:country": "", "alt_name": "", "level": "", "short_name": "", "internet_access": "", "internet_access:fee": "", "roof:shape": "", "height": "", "ref:miabldg": "", "payment:coins": "", "landuse": "", "wikidata": "", "wikipedia": "", "ref:miaaddr": "", "parking": "", "ref:walmart": "" }, "geometry": { "type": "MultiPolygon", "coordinates": [ [ [ [ -80.1854329, 25.854709 ], [ -80.1851213, 25.8547203 ], [ -80.1850537, 25.8547226 ], [ -80.18505, 25.8546054 ], [ -80.1854304, 25.8545953 ], [ -80.1854329, 25.854709 ] ] ] ] } },
{ "type": "Feature", "properties": { "full_id": "w434839506", "osm_id": "434839506", "osm_type": "way", "building": "yes", "name": "", "shop": "antiques", "brand": "", "brand:wikidata": "", "brand:wikipedia": "", "addr:city": "", "addr:housenumber": "", "addr:postcode": "", "addr:street": "", "addr:state": "", "addr:unit": "", "operator": "", "website": "", "opening_hours": "", "building:levels": "", "fax": "", "phone": "", "addr:country": "", "alt_name": "", "level": "", "short_name": "", "internet_access": "", "internet_access:fee": "", "roof:shape": "", "height": "", "ref:miabldg": "", "payment:coins": "", "landuse": "", "wikidata": "", "wikipedia": "", "ref:miaaddr": "", "parking": "", "ref:walmart": "" }, "geometry": { "type": "MultiPolygon", "coordinates": [ [ [ [ -80.1854191, 25.854369 ], [ -80.1850913, 25.854378 ], [ -80.185085, 25.8542676 ], [ -80.1854141, 25.8542552 ], [ -80.1854191, 25.854369 ] ] ] ] } },
{ "type": "Feature", "properties": { "full_id": "w434839507", "osm_id": "434839507", "osm_type": "way", "building": "yes", "name": "", "shop": "antiques", "brand": "", "brand:wikidata": "", "brand:wikipedia": "", "addr:city": "", "addr:housenumber": "", "addr:postcode": "", "addr:street": "", "addr:state": "", "addr:unit": "", "operator": "", "website": "", "opening_hours": "", "building:levels": "", "fax": "", "phone": "", "addr:country": "", "alt_name": "", "level": "", "short_name": "", "internet_access": "", "internet_access:fee": "", "roof:shape": "", "height": "", "ref:miabldg": "", "payment:coins": "", "landuse": "", "wikidata": "", "wikipedia": "", "ref:miaaddr": "", "parking": "", "ref:walmart": "" }, "geometry": { "type": "MultiPolygon", "coordinates": [ [ [ [ -80.1854477, 25.85513 ], [ -80.1854448, 25.8550531 ], [ -80.1853116, 25.8550571 ], [ -80.1852994, 25.85473 ], [ -80.1850552, 25.8547373 ], [ -80.1850676, 25.8550694 ], [ -80.1851322, 25.8550675 ], [ -80.1851349, 25.8551394 ], [ -80.1854477, 25.85513 ] ] ] ] } },
{ "type": "Feature", "properties": { "full_id": "w435237421", "osm_id": "435237421", "osm_type": "way", "building": "yes", "name": "Presidente Supermarket", "shop": "supermarket", "brand": "", "brand:wikidata": "", "brand:wikipedia": "", "addr:city": "Miami", "addr:housenumber": "1895", "addr:postcode": "33135", "addr:street": "Southwest 8th Street", "addr:state": "", "addr:unit": "", "operator": "", "website": "", "opening_hours": "", "building:levels": "1", "fax": "", "phone": "", "addr:country": "", "alt_name": "", "level": "", "short_name": "", "internet_access": "", "internet_access:fee": "", "roof:shape": "", "height": "10.9", "ref:miabldg": "3474", "payment:coins": "", "landuse": "", "wikidata": "", "wikipedia": "", "ref:miaaddr": "", "parking": "", "ref:walmart": "" }, "geometry": { "type": "MultiPolygon", "coordinates": [ [ [ [ -80.2261247, 25.7660626 ], [ -80.2261238, 25.7660354 ], [ -80.225968, 25.7660395 ], [ -80.2259559, 25.7656698 ], [ -80.2259881, 25.765669 ], [ -80.2260214, 25.7656394 ], [ -80.2265158, 25.7656261 ], [ -80.2265435, 25.7656518 ], [ -80.2265525, 25.7659265 ], [ -80.2264906, 25.7659281 ], [ -80.2264924, 25.7659815 ], [ -80.2262944, 25.7659869 ], [ -80.2262967, 25.766058 ], [ -80.2261247, 25.7660626 ] ] ] ] } },
{ "type": "Feature", "properties": { "full_id": "w435377772", "osm_id": "435377772", "osm_type": "way", "building": "yes", "name": "", "shop": "laundry", "brand": "", "brand:wikidata": "", "brand:wikipedia": "", "addr:city": "Miami", "addr:housenumber": "698", "addr:postcode": "33130", "addr:street": "West Flagler Street", "addr:state": "", "addr:unit": "", "operator": "", "website": "", "opening_hours": "", "building:levels": "", "fax": "", "phone": "", "addr:country": "", "alt_name": "", "level": "", "short_name": "", "internet_access": "", "internet_access:fee": "", "roof:shape": "", "height": "8.5", "ref:miabldg": "6654", "payment:coins": "yes", "landuse": "", "wikidata": "", "wikipedia": "", "ref:miaaddr": "", "parking": "", "ref:walmart": "" }, "geometry": { "type": "MultiPolygon", "coordinates": [ [ [ [ -80.2058509, 25.7736505 ], [ -80.2058458, 25.773447 ], [ -80.2059634, 25.7734458 ], [ -80.2059724, 25.7736154 ], [ -80.2059649, 25.7736303 ], [ -80.2059497, 25.7736463 ], [ -80.2059303, 25.7736523 ], [ -80.2058509, 25.7736505 ] ] ] ] } },
{ "type": "Feature", "properties": { "full_id": "w435517560", "osm_id": "435517560", "osm_type": "way", "building": "yes", "name": "", "shop": "convenience", "brand": "", "brand:wikidata": "", "brand:wikipedia": "", "addr:city": "", "addr:housenumber": "", "addr:postcode": "", "addr:street": "", "addr:state": "", "addr:unit": "", "operator": "", "website": "", "opening_hours": "", "building:levels": "", "fax": "", "phone": "", "addr:country": "", "alt_name": "", "level": "", "short_name": "", "internet_access": "", "internet_access:fee": "", "roof:shape": "", "height": "11.6", "ref:miabldg": "18597", "payment:coins": "", "landuse": "", "wikidata": "", "wikipedia": "", "ref:miaaddr": "", "parking": "", "ref:walmart": "" }, "geometry": { "type": "MultiPolygon", "coordinates": [ [ [ [ -80.197023, 25.761763 ], [ -80.1970256, 25.7617957 ], [ -80.1970042, 25.761795 ], [ -80.1969085, 25.7617924 ], [ -80.1969061, 25.7616981 ], [ -80.1969424, 25.7616939 ], [ -80.197023, 25.761763 ] ] ] ] } },
{ "type": "Feature", "properties": { "full_id": "w435574908", "osm_id": "435574908", "osm_type": "way", "building": "yes", "name": "", "shop": "bakery", "brand": "", "brand:wikidata": "", "brand:wikipedia": "", "addr:city": "Miami", "addr:housenumber": "950", "addr:postcode": "33130", "addr:street": "Southwest 8th Street", "addr:state": "", "addr:unit": "", "operator": "", "website": "", "opening_hours": "", "building:levels": "", "fax": "", "phone": "", "addr:country": "", "alt_name": "", "level": "", "short_name": "", "internet_access": "", "internet_access:fee": "", "roof:shape": "", "height": "9.9", "ref:miabldg": "35634", "payment:coins": "", "landuse": "", "wikidata": "", "wikipedia": "", "ref:miaaddr": "", "parking": "", "ref:walmart": "" }, "geometry": { "type": "MultiPolygon", "coordinates": [ [ [ [ -80.2099259, 25.7656624 ], [ -80.2100471, 25.765668 ], [ -80.2100405, 25.7657418 ], [ -80.2100155, 25.7657471 ], [ -80.210015, 25.7658337 ], [ -80.2099829, 25.765861 ], [ -80.2099272, 25.7658599 ], [ -80.2099259, 25.7656624 ] ] ] ] } },
{ "type": "Feature", "properties": { "full_id": "w435586894", "osm_id": "435586894", "osm_type": "way", "building": "yes", "name": "Harbor Freight Tools", "shop": "hardware", "brand": "Harbor Freight Tools", "brand:wikidata": "Q5654601", "brand:wikipedia": "en:Harbor Freight Tools", "addr:city": "Miami", "addr:housenumber": "2851", "addr:postcode": "33142", "addr:street": "Northwest 27th Avenue", "addr:state": "", "addr:unit": "", "operator": "", "website": "", "opening_hours": "", "building:levels": "", "fax": "", "phone": "", "addr:country": "", "alt_name": "", "level": "", "short_name": "", "internet_access": "", "internet_access:fee": "", "roof:shape": "", "height": "9.9", "ref:miabldg": "44148", "payment:coins": "", "landuse": "", "wikidata": "", "wikipedia": "", "ref:miaaddr": "", "parking": "", "ref:walmart": "" }, "geometry": { "type": "MultiPolygon", "coordinates": [ [ [ [ -80.2395073, 25.8024099 ], [ -80.239504, 25.8023029 ], [ -80.2394648, 25.8023039 ], [ -80.2394607, 25.8021689 ], [ -80.2395526, 25.8021666 ], [ -80.2395521, 25.8021482 ], [ -80.23983, 25.8021413 ], [ -80.2398379, 25.8024016 ], [ -80.2395073, 25.8024099 ] ] ] ] } },
{ "type": "Feature", "properties": { "full_id": "w435729295", "osm_id": "435729295", "osm_type": "way", "building": "yes", "name": "", "shop": "convenience", "brand": "", "brand:wikidata": "", "brand:wikipedia": "", "addr:city": "Miami", "addr:housenumber": "675", "addr:postcode": "33126", "addr:street": "Northwest 42nd Avenue", "addr:state": "", "addr:unit": "", "operator": "", "website": "", "opening_hours": "", "building:levels": "", "fax": "", "phone": "", "addr:country": "", "alt_name": "", "level": "", "short_name": "", "internet_access": "", "internet_access:fee": "", "roof:shape": "", "height": "7.6", "ref:miabldg": "46504", "payment:coins": "", "landuse": "", "wikidata": "", "wikipedia": "", "ref:miaaddr": "", "parking": "", "ref:walmart": "" }, "geometry": { "type": "MultiPolygon", "coordinates": [ [ [ [ -80.2636403, 25.7783021 ], [ -80.2636477, 25.7784812 ], [ -80.2636481, 25.7784909 ], [ -80.263602, 25.7784925 ], [ -80.2635941, 25.7783037 ], [ -80.2636403, 25.7783021 ] ] ] ] } },
{ "type": "Feature", "properties": { "full_id": "w435729437", "osm_id": "435729437", "osm_type": "way", "building": "yes", "name": "", "shop": "greengrocer", "brand": "", "brand:wikidata": "", "brand:wikipedia": "", "addr:city": "", "addr:housenumber": "", "addr:postcode": "", "addr:street": "", "addr:state": "", "addr:unit": "", "operator": "", "website": "", "opening_hours": "", "building:levels": "", "fax": "", "phone": "", "addr:country": "", "alt_name": "", "level": "", "short_name": "", "internet_access": "", "internet_access:fee": "", "roof:shape": "", "height": "9.2", "ref:miabldg": "46831", "payment:coins": "", "landuse": "", "wikidata": "", "wikipedia": "", "ref:miaaddr": "", "parking": "", "ref:walmart": "" }, "geometry": { "type": "MultiPolygon", "coordinates": [ [ [ [ -80.1991475, 25.8078204 ], [ -80.1991914, 25.8078188 ], [ -80.1991891, 25.8077399 ], [ -80.1992447, 25.8077385 ], [ -80.1992518, 25.8079879 ], [ -80.1991618, 25.8079908 ], [ -80.1991587, 25.8079506 ], [ -80.1991008, 25.8079504 ], [ -80.1990987, 25.8078395 ], [ -80.1991459, 25.8078384 ], [ -80.1991475, 25.8078204 ] ] ] ] } },
{ "type": "Feature", "properties": { "full_id": "w435730442", "osm_id": "435730442", "osm_type": "way", "building": "yes", "name": "Publix", "shop": "supermarket", "brand": "", "brand:wikidata": "", "brand:wikipedia": "", "addr:city": "", "addr:housenumber": "", "addr:postcode": "", "addr:street": "", "addr:state": "", "addr:unit": "", "operator": "", "website": "", "opening_hours": "", "building:levels": "", "fax": "", "phone": "", "addr:country": "", "alt_name": "", "level": "", "short_name": "", "internet_access": "", "internet_access:fee": "", "roof:shape": "", "height": "15.6", "ref:miabldg": "48955", "payment:coins": "", "landuse": "", "wikidata": "", "wikipedia": "", "ref:miaaddr": "", "parking": "", "ref:walmart": "" }, "geometry": { "type": "MultiPolygon", "coordinates": [ [ [ [ -80.238823, 25.7491672 ], [ -80.2388083, 25.7486145 ], [ -80.2393299, 25.7486031 ], [ -80.2393348, 25.7487837 ], [ -80.2393752, 25.7487828 ], [ -80.2393852, 25.7491549 ], [ -80.238823, 25.7491672 ] ] ] ] } },
{ "type": "Feature", "properties": { "full_id": "w435731399", "osm_id": "435731399", "osm_type": "way", "building": "yes", "name": "Optica Lopez", "shop": "optician", "brand": "", "brand:wikidata": "", "brand:wikipedia": "", "addr:city": "Miami", "addr:housenumber": "1340", "addr:postcode": "33135", "addr:street": "Southwest 8th Street", "addr:state": "", "addr:unit": "", "operator": "", "website": "", "opening_hours": "", "building:levels": "", "fax": "", "phone": "", "addr:country": "", "alt_name": "", "level": "", "short_name": "", "internet_access": "", "internet_access:fee": "", "roof:shape": "", "height": "10.4", "ref:miabldg": "47645", "payment:coins": "", "landuse": "", "wikidata": "", "wikipedia": "", "ref:miaaddr": "", "parking": "", "ref:walmart": "" }, "geometry": { "type": "MultiPolygon", "coordinates": [ [ [ [ -80.2170494, 25.7655739 ], [ -80.2170413, 25.765378 ], [ -80.2173049, 25.765369 ], [ -80.2173129, 25.765562 ], [ -80.2171934, 25.7655661 ], [ -80.2171923, 25.7655407 ], [ -80.2171459, 25.7655423 ], [ -80.2171471, 25.7655706 ], [ -80.2170494, 25.7655739 ] ] ] ] } },
{ "type": "Feature", "properties": { "full_id": "w435748999", "osm_id": "435748999", "osm_type": "way", "building": "yes", "name": "Elio's Optical", "shop": "optician", "brand": "", "brand:wikidata": "", "brand:wikipedia": "", "addr:city": "Miami", "addr:housenumber": "2320", "addr:postcode": "33135", "addr:street": "West Flagler Street", "addr:state": "", "addr:unit": "", "operator": "", "website": "", "opening_hours": "", "building:levels": "", "fax": "", "phone": "", "addr:country": "", "alt_name": "", "level": "", "short_name": "", "internet_access": "", "internet_access:fee": "", "roof:shape": "", "height": "8.2", "ref:miabldg": "57590", "payment:coins": "", "landuse": "", "wikidata": "", "wikipedia": "", "ref:miaaddr": "", "parking": "", "ref:walmart": "" }, "geometry": { "type": "MultiPolygon", "coordinates": [ [ [ [ -80.2333895, 25.7721895 ], [ -80.2335571, 25.7721834 ], [ -80.2335637, 25.7723319 ], [ -80.2333961, 25.772338 ], [ -80.2333895, 25.7721895 ] ] ] ] } },
{ "type": "Feature", "properties": { "full_id": "w435846627", "osm_id": "435846627", "osm_type": "way", "building": "yes", "name": "Family Dollar", "shop": "variety_store", "brand": "Family Dollar", "brand:wikidata": "Q5433101", "brand:wikipedia": "en:Family Dollar", "addr:city": "", "addr:housenumber": "", "addr:postcode": "", "addr:street": "", "addr:state": "", "addr:unit": "", "operator": "", "website": "", "opening_hours": "", "building:levels": "", "fax": "", "phone": "", "addr:country": "", "alt_name": "", "level": "", "short_name": "", "internet_access": "", "internet_access:fee": "", "roof:shape": "", "height": "8.0", "ref:miabldg": "69408", "payment:coins": "", "landuse": "", "wikidata": "", "wikipedia": "", "ref:miaaddr": "", "parking": "", "ref:walmart": "" }, "geometry": { "type": "MultiPolygon", "coordinates": [ [ [ [ -80.2280833, 25.7731999 ], [ -80.2280824, 25.7731594 ], [ -80.2280429, 25.7731601 ], [ -80.2280382, 25.7729543 ], [ -80.2284695, 25.7729463 ], [ -80.2284742, 25.773151 ], [ -80.2281247, 25.7731575 ], [ -80.2281256, 25.7731991 ], [ -80.2280833, 25.7731999 ] ] ] ] } },
{ "type": "Feature", "properties": { "full_id": "w436034162", "osm_id": "436034162", "osm_type": "way", "building": "yes", "name": "CVS Pharmacy", "shop": "chemist", "brand": "CVS Pharmacy", "brand:wikidata": "Q2078880", "brand:wikipedia": "en:CVS Pharmacy", "addr:city": "Miami", "addr:housenumber": "3695", "addr:postcode": "33135", "addr:street": "West Flagler Street", "addr:state": "", "addr:unit": "", "operator": "", "website": "", "opening_hours": "", "building:levels": "", "fax": "", "phone": "", "addr:country": "", "alt_name": "", "level": "", "short_name": "CVS", "internet_access": "", "internet_access:fee": "", "roof:shape": "", "height": "14.7", "ref:miabldg": "76841", "payment:coins": "", "landuse": "", "wikidata": "", "wikipedia": "", "ref:miaaddr": "", "parking": "", "ref:walmart": "" }, "geometry": { "type": "MultiPolygon", "coordinates": [ [ [ [ -80.2548095, 25.7724577 ], [ -80.2548089, 25.7724228 ], [ -80.2548082, 25.7723808 ], [ -80.2548001, 25.7723809 ], [ -80.2547682, 25.7723813 ], [ -80.2547642, 25.7721316 ], [ -80.2552253, 25.7721255 ], [ -80.2552346, 25.7721258 ], [ -80.2552387, 25.7723754 ], [ -80.2548823, 25.7723802 ], [ -80.2548835, 25.7724218 ], [ -80.2548835, 25.7724568 ], [ -80.2548095, 25.7724577 ] ] ] ] } },
{ "type": "Feature", "properties": { "full_id": "w436121978", "osm_id": "436121978", "osm_type": "way", "building": "yes", "name": "Safeguard Self Storag", "shop": "storage_rental", "brand": "", "brand:wikidata": "", "brand:wikipedia": "", "addr:city": "", "addr:housenumber": "", "addr:postcode": "", "addr:street": "", "addr:state": "", "addr:unit": "", "operator": "", "website": "", "opening_hours": "", "building:levels": "", "fax": "", "phone": "", "addr:country": "", "alt_name": "", "level": "", "short_name": "", "internet_access": "", "internet_access:fee": "", "roof:shape": "", "height": "19.5", "ref:miabldg": "90690", "payment:coins": "", "landuse": "", "wikidata": "", "wikipedia": "", "ref:miaaddr": "", "parking": "", "ref:walmart": "" }, "geometry": { "type": "MultiPolygon", "coordinates": [ [ [ [ -80.2043793, 25.8108641 ], [ -80.2042636, 25.8103206 ], [ -80.204476, 25.8102804 ], [ -80.2044989, 25.8103926 ], [ -80.2046479, 25.8103667 ], [ -80.2047237, 25.8107059 ], [ -80.2045688, 25.8107344 ], [ -80.2045858, 25.8108279 ], [ -80.2043793, 25.8108641 ] ] ] ] } },
{ "type": "Feature", "properties": { "full_id": "w441835976", "osm_id": "441835976", "osm_type": "way", "building": "", "name": "Bayside Marketplace", "shop": "mall", "brand": "", "brand:wikidata": "", "brand:wikipedia": "", "addr:city": "", "addr:housenumber": "401", "addr:postcode": "", "addr:street": "Biscayne Boulevard", "addr:state": "", "addr:unit": "", "operator": "", "website": "", "opening_hours": "", "building:levels": "", "fax": "", "phone": "", "addr:country": "", "alt_name": "", "level": "", "short_name": "", "internet_access": "", "internet_access:fee": "", "roof:shape": "", "height": "", "ref:miabldg": "", "payment:coins": "", "landuse": "retail", "wikidata": "Q4874837", "wikipedia": "en:Bayside Marketplace", "ref:miaaddr": "", "parking": "", "ref:walmart": "" }, "geometry": { "type": "MultiPolygon", "coordinates": [ [ [ [ -80.1843987, 25.7777826 ], [ -80.1839264, 25.7775583 ], [ -80.1842223, 25.7770073 ], [ -80.1845187, 25.7764674 ], [ -80.1854413, 25.7768363 ], [ -80.1858368, 25.7769945 ], [ -80.1858941, 25.7770174 ], [ -80.1860029, 25.7770347 ], [ -80.1859901, 25.7772192 ], [ -80.1863663, 25.7774214 ], [ -80.1867198, 25.7776914 ], [ -80.1867949, 25.7780682 ], [ -80.1878671, 25.7780523 ], [ -80.1884586, 25.7794342 ], [ -80.1884626, 25.7794801 ], [ -80.1884372, 25.7795199 ], [ -80.1883071, 25.7796286 ], [ -80.1882266, 25.7796757 ], [ -80.188, 25.779782 ], [ -80.1878028, 25.7798411 ], [ -80.1870263, 25.7798786 ], [ -80.1862619, 25.7798967 ], [ -80.1862605, 25.7796647 ], [ -80.1862486, 25.7793094 ], [ -80.1862196, 25.7793104 ], [ -80.1862147, 25.7791978 ], [ -80.1862444, 25.7791967 ], [ -80.18623, 25.7787164 ], [ -80.1861987, 25.7787169 ], [ -80.1861963, 25.7786028 ], [ -80.1862244, 25.7786023 ], [ -80.1862194, 25.7784351 ], [ -80.1862152, 25.7783339 ], [ -80.1862454, 25.7783326 ], [ -80.1862377, 25.7781404 ], [ -80.1862377, 25.7780841 ], [ -80.1862334, 25.7780446 ], [ -80.1862289, 25.7780155 ], [ -80.1862229, 25.7779908 ], [ -80.1862152, 25.7779706 ], [ -80.1862032, 25.7779412 ], [ -80.1861881, 25.7779133 ], [ -80.1861688, 25.7778858 ], [ -80.1861436, 25.7778552 ], [ -80.1861179, 25.7778299 ], [ -80.1860874, 25.7778039 ], [ -80.186048, 25.7777771 ], [ -80.1860224, 25.7777622 ], [ -80.1859989, 25.7777511 ], [ -80.1849023, 25.7773437 ], [ -80.1848887, 25.777339 ], [ -80.1848049, 25.7773363 ], [ -80.1847788, 25.7773855 ], [ -80.184766, 25.7776313 ], [ -80.184697, 25.7776889 ], [ -80.1845876, 25.7777903 ], [ -80.1843987, 25.7777826 ] ] ] ] } },
{ "type": "Feature", "properties": { "full_id": "w454144062", "osm_id": "454144062", "osm_type": "way", "building": "yes", "name": "Braman Kia", "shop": "car", "brand": "", "brand:wikidata": "", "brand:wikipedia": "", "addr:city": "", "addr:housenumber": "1930", "addr:postcode": "33132", "addr:street": "Northeast 2nd Avenue", "addr:state": "", "addr:unit": "", "operator": "", "website": "", "opening_hours": "", "building:levels": "", "fax": "", "phone": "", "addr:country": "", "alt_name": "", "level": "", "short_name": "", "internet_access": "", "internet_access:fee": "", "roof:shape": "", "height": "11.9", "ref:miabldg": "88768", "payment:coins": "", "landuse": "", "wikidata": "", "wikipedia": "", "ref:miaaddr": "273910", "parking": "", "ref:walmart": "" }, "geometry": { "type": "MultiPolygon", "coordinates": [ [ [ [ -80.1909525, 25.7953688 ], [ -80.1911734, 25.7953633 ], [ -80.1911819, 25.7956405 ], [ -80.1909592, 25.7956461 ], [ -80.1909242, 25.7956203 ], [ -80.1909178, 25.7954136 ], [ -80.1909525, 25.7953688 ] ] ] ] } },
{ "type": "Feature", "properties": { "full_id": "w454144083", "osm_id": "454144083", "osm_type": "way", "building": "yes", "name": "The Fortress", "shop": "storage_rental", "brand": "", "brand:wikidata": "", "brand:wikipedia": "", "addr:city": "Miami", "addr:housenumber": "1629", "addr:postcode": "33132", "addr:street": "Northeast 1st Avenue", "addr:state": "", "addr:unit": "", "operator": "", "website": "", "opening_hours": "", "building:levels": "", "fax": "", "phone": "", "addr:country": "", "alt_name": "", "level": "", "short_name": "", "internet_access": "", "internet_access:fee": "", "roof:shape": "", "height": "37.8", "ref:miabldg": "257", "payment:coins": "", "landuse": "", "wikidata": "", "wikipedia": "", "ref:miaaddr": "292408", "parking": "", "ref:walmart": "" }, "geometry": { "type": "MultiPolygon", "coordinates": [ [ [ [ -80.1920653, 25.7914489 ], [ -80.1920647, 25.7914236 ], [ -80.1919811, 25.7914252 ], [ -80.191972, 25.7910342 ], [ -80.1921853, 25.7910301 ], [ -80.1921951, 25.7914464 ], [ -80.1920653, 25.7914489 ] ] ] ] } },
{ "type": "Feature", "properties": { "full_id": "w454144108", "osm_id": "454144108", "osm_type": "way", "building": "yes", "name": "Price Choice", "shop": "supermarket", "brand": "", "brand:wikidata": "", "brand:wikipedia": "", "addr:city": "Miami", "addr:housenumber": "1851", "addr:postcode": "33132", "addr:street": "Northeast 2nd Avenue", "addr:state": "", "addr:unit": "", "operator": "", "website": "", "opening_hours": "", "building:levels": "", "fax": "", "phone": "", "addr:country": "", "alt_name": "", "level": "", "short_name": "", "internet_access": "", "internet_access:fee": "", "roof:shape": "", "height": "11.7", "ref:miabldg": "15061", "payment:coins": "", "landuse": "", "wikidata": "", "wikipedia": "", "ref:miaaddr": "489089", "parking": "", "ref:walmart": "" }, "geometry": { "type": "MultiPolygon", "coordinates": [ [ [ [ -80.1899951, 25.7941621 ], [ -80.1903689, 25.7941542 ], [ -80.1903793, 25.7945607 ], [ -80.1900056, 25.7945686 ], [ -80.1899951, 25.7941621 ] ] ] ] } },
{ "type": "Feature", "properties": { "full_id": "w454144113", "osm_id": "454144113", "osm_type": "way", "building": "yes", "name": "Publix", "shop": "supermarket", "brand": "Publix", "brand:wikidata": "Q672170", "brand:wikipedia": "en:Publix", "addr:city": "", "addr:housenumber": "1776", "addr:postcode": "33132", "addr:street": "Biscayne Boulevard", "addr:state": "", "addr:unit": "", "operator": "", "website": "", "opening_hours": "", "building:levels": "", "fax": "", "phone": "", "addr:country": "", "alt_name": "", "level": "", "short_name": "", "internet_access": "", "internet_access:fee": "", "roof:shape": "", "height": "20.3", "ref:miabldg": "84824", "payment:coins": "", "landuse": "", "wikidata": "", "wikipedia": "", "ref:miaaddr": "295032", "parking": "multi-storey", "ref:walmart": "" }, "geometry": { "type": "MultiPolygon", "coordinates": [ [ [ [ -80.189191, 25.793288 ], [ -80.1891891, 25.793224 ], [ -80.1891553, 25.7932237 ], [ -80.1891397, 25.7932064 ], [ -80.1891317, 25.7931892 ], [ -80.1891245, 25.7931652 ], [ -80.1891215, 25.7930983 ], [ -80.1891261, 25.7930453 ], [ -80.1891501, 25.7930138 ], [ -80.1891916, 25.7930167 ], [ -80.1891856, 25.7929443 ], [ -80.1891424, 25.7929478 ], [ -80.1891199, 25.7929301 ], [ -80.1891123, 25.792907 ], [ -80.1891099, 25.7928363 ], [ -80.1891096, 25.7928218 ], [ -80.1891115, 25.7928044 ], [ -80.1891158, 25.7927872 ], [ -80.1891223, 25.7927707 ], [ -80.1891325, 25.7927551 ], [ -80.1891577, 25.7927352 ], [ -80.1891573, 25.7925819 ], [ -80.1892118, 25.7925808 ], [ -80.1892141, 25.7924528 ], [ -80.1896503, 25.7924419 ], [ -80.189672, 25.7925047 ], [ -80.1897231, 25.7925038 ], [ -80.1897884, 25.7925027 ], [ -80.1898077, 25.793383 ], [ -80.1897209, 25.7934356 ], [ -80.1891884, 25.7934453 ], [ -80.1891825, 25.7934463 ], [ -80.1891716, 25.7934463 ], [ -80.1891609, 25.7934442 ], [ -80.189151, 25.7934401 ], [ -80.1891423, 25.7934341 ], [ -80.1891353, 25.7934265 ], [ -80.1891302, 25.7934178 ], [ -80.1891274, 25.7934082 ], [ -80.1891268, 25.793398 ], [ -80.1891247, 25.7933795 ], [ -80.189125, 25.7933611 ], [ -80.1891278, 25.7933429 ], [ -80.1891328, 25.7933251 ], [ -80.1891402, 25.793308 ], [ -80.1891497, 25.7932917 ], [ -80.189191, 25.793288 ] ] ] ] } },
{ "type": "Feature", "properties": { "full_id": "w617933065", "osm_id": "617933065", "osm_type": "way", "building": "yes", "name": "", "shop": "car", "brand": "", "brand:wikidata": "", "brand:wikipedia": "", "addr:city": "", "addr:housenumber": "", "addr:postcode": "", "addr:street": "", "addr:state": "", "addr:unit": "", "operator": "", "website": "", "opening_hours": "", "building:levels": "", "fax": "", "phone": "", "addr:country": "", "alt_name": "", "level": "", "short_name": "", "internet_access": "", "internet_access:fee": "", "roof:shape": "", "height": "", "ref:miabldg": "", "payment:coins": "", "landuse": "", "wikidata": "", "wikipedia": "", "ref:miaaddr": "", "parking": "", "ref:walmart": "" }, "geometry": { "type": "MultiPolygon", "coordinates": [ [ [ [ -80.1893727, 25.8128885 ], [ -80.1900889, 25.8128378 ], [ -80.1900553, 25.8127509 ], [ -80.1899588, 25.8126217 ], [ -80.1898823, 25.8125722 ], [ -80.1897724, 25.8125335 ], [ -80.1896423, 25.8125191 ], [ -80.1894143, 25.8125239 ], [ -80.1893727, 25.8128885 ] ] ] ] } },
{ "type": "Feature", "properties": { "full_id": "w706203207", "osm_id": "706203207", "osm_type": "way", "building": "yes", "name": "Walmart Neighborhood Market", "shop": "supermarket", "brand": "Walmart", "brand:wikidata": "Q483551", "brand:wikipedia": "en:Walmart", "addr:city": "Miami", "addr:housenumber": "6991", "addr:postcode": "33144", "addr:street": "Southwest 8th Street", "addr:state": "FL", "addr:unit": "", "operator": "", "website": "https:\/\/www.walmart.com\/store\/4140\/miami-fl\/whats-new", "opening_hours": "24\/7", "building:levels": "", "fax": "", "phone": "+1-786-257-4094", "addr:country": "", "alt_name": "", "level": "", "short_name": "", "internet_access": "", "internet_access:fee": "", "roof:shape": "", "height": "", "ref:miabldg": "", "payment:coins": "", "landuse": "", "wikidata": "", "wikipedia": "", "ref:miaaddr": "", "parking": "", "ref:walmart": "4140" }, "geometry": { "type": "MultiPolygon", "coordinates": [ [ [ [ -80.3092649, 25.7651644 ], [ -80.3092433, 25.7646083 ], [ -80.3084581, 25.7646331 ], [ -80.30848, 25.7651944 ], [ -80.3088998, 25.7651812 ], [ -80.3089026, 25.7652558 ], [ -80.309136, 25.7652485 ], [ -80.3091329, 25.7651685 ], [ -80.3092649, 25.7651644 ] ] ] ] } }
]
}
