{
"type": "FeatureCollection",
"name": "shop_polygon_beach",
"crs": { "type": "name", "properties": { "name": "urn:ogc:def:crs:OGC:1.3:CRS84" } },
"features": [
{ "type": "Feature", "properties": { "full_id": "w260945358", "osm_id": "260945358", "osm_type": "way", "addr:street": "Alton Road", "building": "retail", "name": "Whole Food Market", "opening_hours": "Mo-Su 08:00-23:00", "shop": "greengrocer", "alt_name": "", "addr:city": "", "addr:housenumber": "", "addr:postcode": "", "addr:state": "", "building:levels": "", "brand": "", "brand:wikidata": "", "brand:wikipedia": "", "height": "", "ref:miabldg": "", "landuse": "", "website": "", "wikidata": "", "wikipedia": "" }, "geometry": { "type": "MultiPolygon", "coordinates": [ [ [ [ -80.1410889, 25.7813378 ], [ -80.1410685, 25.7808504 ], [ -80.1415142, 25.7808329 ], [ -80.1415336, 25.781252 ], [ -80.1413819, 25.7812576 ], [ -80.1413847, 25.7813233 ], [ -80.1413271, 25.7813261 ], [ -80.1411168, 25.7813364 ], [ -80.1410889, 25.7813378 ] ] ] ] } },
{ "type": "Feature", "properties": { "full_id": "w263233278", "osm_id": "263233278", "osm_type": "way", "addr:street": "", "building": "yes", "name": "South Beach Hardgoods Company", "opening_hours": "", "shop": "hardware", "alt_name": "Ace Hardware", "addr:city": "", "addr:housenumber": "", "addr:postcode": "", "addr:state": "", "building:levels": "", "brand": "", "brand:wikidata": "", "brand:wikipedia": "", "height": "", "ref:miabldg": "", "landuse": "", "website": "", "wikidata": "", "wikipedia": "" }, "geometry": { "type": "MultiPolygon", "coordinates": [ [ [ [ -80.1417584, 25.7909855 ], [ -80.1417618, 25.7912357 ], [ -80.1415264, 25.7912383 ], [ -80.1415267, 25.7912586 ], [ -80.141401, 25.79126 ], [ -80.141382, 25.7912602 ], [ -80.1413814, 25.7912125 ], [ -80.1414118, 25.7912122 ], [ -80.1414093, 25.7910347 ], [ -80.1413767, 25.791035 ], [ -80.141376, 25.7909897 ], [ -80.1417584, 25.7909855 ] ] ] ] } },
{ "type": "Feature", "properties": { "full_id": "w263233283", "osm_id": "263233283", "osm_type": "way", "addr:street": "West Avenue", "building": "warehouse", "name": "Public Storage", "opening_hours": "", "shop": "storage_rental", "alt_name": "", "addr:city": "Miami Beach", "addr:housenumber": "1301", "addr:postcode": "33139", "addr:state": "FL", "building:levels": "3", "brand": "", "brand:wikidata": "", "brand:wikipedia": "", "height": "", "ref:miabldg": "", "landuse": "", "website": "", "wikidata": "", "wikipedia": "" }, "geometry": { "type": "MultiPolygon", "coordinates": [ [ [ [ -80.1431215, 25.7930638 ], [ -80.1431181, 25.7929278 ], [ -80.143116, 25.7928418 ], [ -80.1431113, 25.7926508 ], [ -80.1430919, 25.7926493 ], [ -80.1430866, 25.7926381 ], [ -80.1430742, 25.7926285 ], [ -80.1430512, 25.792619 ], [ -80.1430255, 25.7926158 ], [ -80.1430043, 25.7926174 ], [ -80.1429777, 25.792623 ], [ -80.1429538, 25.7926325 ], [ -80.1428627, 25.7927082 ], [ -80.1428211, 25.7927321 ], [ -80.1427839, 25.7927488 ], [ -80.1427326, 25.7927632 ], [ -80.1426884, 25.7927791 ], [ -80.142661, 25.792795 ], [ -80.1426442, 25.7928118 ], [ -80.1426335, 25.7928373 ], [ -80.1426318, 25.7928739 ], [ -80.1426326, 25.7929751 ], [ -80.1426495, 25.7929878 ], [ -80.1426512, 25.7930747 ], [ -80.1431215, 25.7930638 ] ] ] ] } },
{ "type": "Feature", "properties": { "full_id": "w308931282", "osm_id": "308931282", "osm_type": "way", "addr:street": "", "building": "yes", "name": "7-Eleven", "opening_hours": "", "shop": "convenience", "alt_name": "", "addr:city": "", "addr:housenumber": "", "addr:postcode": "", "addr:state": "", "building:levels": "", "brand": "7-Eleven", "brand:wikidata": "Q259340", "brand:wikipedia": "en:7-Eleven", "height": "", "ref:miabldg": "", "landuse": "", "website": "", "wikidata": "", "wikipedia": "" }, "geometry": { "type": "MultiPolygon", "coordinates": [ [ [ [ -80.1207474, 25.8453096 ], [ -80.1206322, 25.8452825 ], [ -80.1205847, 25.8454425 ], [ -80.1205605, 25.8455237 ], [ -80.1206752, 25.8455527 ], [ -80.1207474, 25.8453096 ] ] ] ] } },
{ "type": "Feature", "properties": { "full_id": "w344377849", "osm_id": "344377849", "osm_type": "way", "addr:street": "", "building": "yes", "name": "Walgreens", "opening_hours": "", "shop": "supermarket", "alt_name": "", "addr:city": "", "addr:housenumber": "", "addr:postcode": "", "addr:state": "", "building:levels": "", "brand": "", "brand:wikidata": "", "brand:wikipedia": "", "height": "", "ref:miabldg": "", "landuse": "", "website": "", "wikidata": "", "wikipedia": "" }, "geometry": { "type": "MultiPolygon", "coordinates": [ [ [ [ -80.1215605, 25.8594625 ], [ -80.1210984, 25.8594803 ], [ -80.1210796, 25.8590655 ], [ -80.1215405, 25.8590601 ], [ -80.1215605, 25.8594625 ] ] ] ] } },
{ "type": "Feature", "properties": { "full_id": "w396472117", "osm_id": "396472117", "osm_type": "way", "addr:street": "", "building": "yes", "name": "Sunset Harbour Shops", "opening_hours": "", "shop": "mall", "alt_name": "", "addr:city": "", "addr:housenumber": "", "addr:postcode": "", "addr:state": "", "building:levels": "", "brand": "", "brand:wikidata": "", "brand:wikipedia": "", "height": "", "ref:miabldg": "", "landuse": "", "website": "", "wikidata": "", "wikipedia": "" }, "geometry": { "type": "MultiPolygon", "coordinates": [ [ [ [ -80.1443093, 25.7949767 ], [ -80.1443056, 25.7942018 ], [ -80.1438887, 25.7941995 ], [ -80.143918, 25.7949833 ], [ -80.1443093, 25.7949767 ] ] ] ] } },
{ "type": "Feature", "properties": { "full_id": "w396475617", "osm_id": "396475617", "osm_type": "way", "addr:street": "Alton Road", "building": "yes", "name": "The Tire Choice", "opening_hours": "", "shop": "tyres", "alt_name": "", "addr:city": "Miami Beach", "addr:housenumber": "1850", "addr:postcode": "33139", "addr:state": "FL", "building:levels": "", "brand": "", "brand:wikidata": "", "brand:wikipedia": "", "height": "", "ref:miabldg": "", "landuse": "", "website": "", "wikidata": "", "wikipedia": "" }, "geometry": { "type": "MultiPolygon", "coordinates": [ [ [ [ -80.1417734, 25.7946398 ], [ -80.1417758, 25.7947653 ], [ -80.1416144, 25.7947675 ], [ -80.1416071, 25.7946442 ], [ -80.1415313, 25.794642 ], [ -80.141524, 25.7945253 ], [ -80.1418516, 25.7945253 ], [ -80.1418541, 25.7946398 ], [ -80.1417734, 25.7946398 ] ] ] ] } },
{ "type": "Feature", "properties": { "full_id": "w396477134", "osm_id": "396477134", "osm_type": "way", "addr:street": "West Avenue", "building": "yes", "name": "Office Depot", "opening_hours": "", "shop": "stationery", "alt_name": "", "addr:city": "Miami Beach", "addr:housenumber": "1771", "addr:postcode": "33139", "addr:state": "FL", "building:levels": "", "brand": "Office Depot", "brand:wikidata": "Q1337797", "brand:wikipedia": "en:Office Depot", "height": "", "ref:miabldg": "", "landuse": "", "website": "", "wikidata": "", "wikipedia": "" }, "geometry": { "type": "MultiPolygon", "coordinates": [ [ [ [ -80.1424361, 25.7934487 ], [ -80.1423921, 25.7934509 ], [ -80.1423945, 25.7934949 ], [ -80.1420571, 25.7935015 ], [ -80.1420497, 25.7932945 ], [ -80.1421524, 25.7932945 ], [ -80.14215, 25.7932285 ], [ -80.1424288, 25.7932219 ], [ -80.1424361, 25.7934487 ] ] ] ] } },
{ "type": "Feature", "properties": { "full_id": "w435540378", "osm_id": "435540378", "osm_type": "way", "addr:street": "83rd Street", "building": "yes", "name": "divine enterprises", "opening_hours": "", "shop": "yes", "alt_name": "", "addr:city": "Miami Beach", "addr:housenumber": "320", "addr:postcode": "33141", "addr:state": "", "building:levels": "", "brand": "", "brand:wikidata": "", "brand:wikipedia": "", "height": "9.8", "ref:miabldg": "27689", "landuse": "", "website": "", "wikidata": "", "wikipedia": "" }, "geometry": { "type": "MultiPolygon", "coordinates": [ [ [ [ -80.122947, 25.8679427 ], [ -80.1229443, 25.8678586 ], [ -80.1228948, 25.8678596 ], [ -80.1228905, 25.8678934 ], [ -80.1228607, 25.8678927 ], [ -80.1228583, 25.8679012 ], [ -80.1228229, 25.8679024 ], [ -80.1228199, 25.8679271 ], [ -80.1227528, 25.8679264 ], [ -80.1227531, 25.8677887 ], [ -80.1230308, 25.8677902 ], [ -80.1230311, 25.8679099 ], [ -80.1230218, 25.8679267 ], [ -80.1230032, 25.8679392 ], [ -80.1229781, 25.8679457 ], [ -80.122947, 25.8679427 ] ] ] ] } },
{ "type": "Feature", "properties": { "full_id": "w435566937", "osm_id": "435566937", "osm_type": "way", "addr:street": "Abbott Avenue", "building": "yes", "name": "Florida Pro Cycle", "opening_hours": "", "shop": "bicycle", "alt_name": "", "addr:city": "Miami Beach", "addr:housenumber": "7145", "addr:postcode": "33141", "addr:state": "", "building:levels": "", "brand": "", "brand:wikidata": "", "brand:wikipedia": "", "height": "7.1", "ref:miabldg": "33438", "landuse": "", "website": "", "wikidata": "", "wikipedia": "" }, "geometry": { "type": "MultiPolygon", "coordinates": [ [ [ [ -80.1219824, 25.8569773 ], [ -80.1219764, 25.8567884 ], [ -80.1220958, 25.8567853 ], [ -80.1220971, 25.8568263 ], [ -80.122252, 25.8568223 ], [ -80.1222541, 25.8568903 ], [ -80.1220932, 25.8568945 ], [ -80.1220957, 25.8569744 ], [ -80.1219824, 25.8569773 ] ] ] ] } },
{ "type": "Feature", "properties": { "full_id": "w436039973", "osm_id": "436039973", "osm_type": "way", "addr:street": "", "building": "yes", "name": "Sherwin-Williams", "opening_hours": "", "shop": "paint", "alt_name": "", "addr:city": "", "addr:housenumber": "", "addr:postcode": "", "addr:state": "", "building:levels": "", "brand": "", "brand:wikidata": "", "brand:wikipedia": "", "height": "7.3", "ref:miabldg": "84241", "landuse": "", "website": "", "wikidata": "", "wikipedia": "" }, "geometry": { "type": "MultiPolygon", "coordinates": [ [ [ [ -80.1300433, 25.8561313 ], [ -80.1300342, 25.8560335 ], [ -80.1300175, 25.8560348 ], [ -80.1299998, 25.8558446 ], [ -80.130161, 25.8558323 ], [ -80.1301879, 25.8561203 ], [ -80.1300433, 25.8561313 ] ] ] ] } },
{ "type": "Feature", "properties": { "full_id": "w441809093", "osm_id": "441809093", "osm_type": "way", "addr:street": "Lincoln Road", "building": "", "name": "Lincoln Road Mall", "opening_hours": "", "shop": "mall", "alt_name": "", "addr:city": "Miami Beach", "addr:housenumber": "", "addr:postcode": "33139", "addr:state": "", "building:levels": "", "brand": "", "brand:wikidata": "", "brand:wikipedia": "", "height": "", "ref:miabldg": "", "landuse": "retail", "website": "https:\/\/lincolnroadmall.com", "wikidata": "Q3241310", "wikipedia": "en:Lincoln Road" }, "geometry": { "type": "MultiPolygon", "coordinates": [ [ [ [ -80.1319961, 25.7910972 ], [ -80.1320833, 25.7911539 ], [ -80.1341573, 25.7910954 ], [ -80.1352906, 25.7910507 ], [ -80.135375, 25.7910857 ], [ -80.135485, 25.7911497 ], [ -80.1355521, 25.7911618 ], [ -80.1364684, 25.7911434 ], [ -80.1366508, 25.7911132 ], [ -80.1399469, 25.7910265 ], [ -80.1410975, 25.7910128 ], [ -80.1410686, 25.7898935 ], [ -80.1398962, 25.7899069 ], [ -80.1386879, 25.7899407 ], [ -80.1366186, 25.7899998 ], [ -80.1343508, 25.7900481 ], [ -80.1319599, 25.7900678 ], [ -80.1319733, 25.7909348 ], [ -80.1319961, 25.7910972 ] ] ] ] } }
]
}
